{"type":"FeatureCollection","features":[{"type":"Feature","id":"limiteucsfederais_a.37","geometry":{"type":"MultiPolygon","coordinates":[[[[-43.70082819,-19.05889668],[-43.70083201,-19.05949748],[-43.70053827,-19.0594956],[-43.69971428,-19.05949939],[-43.69920693,-19.05959476],[-43.6985775,-19.05959476],[-43.69743689,-19.05952801],[-43.69666249,-19.05964436],[-43.69610556,-19.05976262],[-43.69562108,-19.05983128],[-43.69491918,-19.05990376],[-43.69426304,-19.06002204],[-43.69356116,-19.06022803],[-43.69271428,-19.06057516],[-43.69201234,-19.06087654],[-43.69179492,-19.06101578],[-43.69133333,-19.06133813],[-43.69068101,-19.06182641],[-43.69012407,-19.06245009],[-43.6892276,-19.06325693],[-43.68819003,-19.06425257],[-43.68761016,-19.06507845],[-43.68698075,-19.06611797],[-43.68647338,-19.06685612],[-43.68632842,-19.06706783],[-43.68622924,-19.06725093],[-43.68543195,-19.06808254],[-43.6849742,-19.06884169],[-43.68468428,-19.06939481],[-43.6846118,-19.06976485],[-43.68458894,-19.07050108],[-43.68456603,-19.07107902],[-43.68456603,-19.07188392],[-43.68461563,-19.07255341],[-43.68481018,-19.07343078],[-43.68500472,-19.0744226],[-43.68532517,-19.07559372],[-43.68563798,-19.07649019],[-43.68598132,-19.07734278],[-43.68624833,-19.07794169],[-43.68642002,-19.07863406],[-43.68656497,-19.07962397],[-43.68656879,-19.08049946],[-43.68637426,-19.08089237],[-43.6861072,-19.0812605],[-43.68591646,-19.08151608],[-43.68581728,-19.08172398],[-43.6854091,-19.08271582],[-43.68506961,-19.08368475],[-43.68466143,-19.08442099],[-43.68427232,-19.0848616],[-43.68366582,-19.08518202],[-43.68330339,-19.08612809],[-43.6829181,-19.08723816],[-43.68287233,-19.08827196],[-43.68284942,-19.08933435],[-43.68282656,-19.08993326],[-43.68285327,-19.09085642],[-43.68290286,-19.0917281],[-43.68295244,-19.09249292],[-43.68304781,-19.09322919],[-43.6831737,-19.09410275],[-43.6831737,-19.09426487],[-43.68285707,-19.09467877],[-43.68174318,-19.09562864],[-43.68155245,-19.09592429],[-43.681335,-19.09615889],[-43.68104508,-19.096527],[-43.68058352,-19.09694281],[-43.68014863,-19.09736051],[-43.6798816,-19.0976123],[-43.6795421,-19.09795752],[-43.6791797,-19.09814444],[-43.67864563,-19.09844391],[-43.67787125,-19.09865372],[-43.67721893,-19.09883873],[-43.67673445,-19.09890741],[-43.6762004,-19.09898178],[-43.67554425,-19.09898178],[-43.67508269,-19.09881966],[-43.67459821,-19.09838289],[-43.67411373,-19.09780878],[-43.67338512,-19.09675209],[-43.67314097,-19.09601395],[-43.67282434,-19.09513848],[-43.6726031,-19.09440033],[-43.67233606,-19.09371178],[-43.67216439,-19.09260359],[-43.67199654,-19.09170903],[-43.67182487,-19.09085454],[-43.67160361,-19.08998097],[-43.671287,-19.08929051],[-43.67109242,-19.0886668],[-43.67092459,-19.08829867],[-43.67082541,-19.08811366],[-43.67065372,-19.08781804],[-43.67038673,-19.0873107],[-43.67007391,-19.08689677],[-43.66956273,-19.08643711],[-43.66922321,-19.0860461],[-43.66888372,-19.08574472],[-43.66851749,-19.08528697],[-43.66817798,-19.0847777],[-43.66771641,-19.08402049],[-43.66715945,-19.08319463],[-43.66669785,-19.08263956],[-43.66640413,-19.08220277],[-43.66611419,-19.08167252],[-43.66599213,-19.08126055],[-43.66587006,-19.0808886],[-43.6657251,-19.08038314],[-43.66553054,-19.07996926],[-43.66545806,-19.07976137],[-43.66545806,-19.07941803],[-43.66545806,-19.07921014],[-43.66543135,-19.0788401],[-43.66535887,-19.07856354],[-43.66528639,-19.07837853],[-43.66438994,-19.0784529],[-43.66400083,-19.07861314],[-43.66337141,-19.07923494],[-43.66255124,-19.08043656],[-43.66179975,-19.08145129],[-43.66100246,-19.08232676],[-43.66032346,-19.08285893],[-43.65954905,-19.08327854],[-43.65799646,-19.08309544],[-43.6563256,-19.08261286],[-43.65511252,-19.08217991],[-43.65406729,-19.0818156],[-43.65314795,-19.08137885],[-43.65278172,-19.08107936],[-43.6524918,-19.08087338],[-43.6520798,-19.08054914],[-43.65186236,-19.08020389],[-43.65140079,-19.07978999],[-43.6513016,-19.07937802],[-43.65091249,-19.07909953],[-43.65045474,-19.07875813],[-43.65001604,-19.07868756],[-43.6498253,-19.07868947],[-43.64963075,-19.07868756],[-43.64929123,-19.07866847],[-43.64906999,-19.07864367],[-43.64885255,-19.07857501],[-43.64865799,-19.07843768],[-43.64846726,-19.07832322],[-43.6482727,-19.07823172],[-43.6478607,-19.07811535],[-43.64766615,-19.07806767],[-43.64720458,-19.07809247],[-43.64672011,-19.07834996],[-43.64621274,-19.07888021],[-43.64594573,-19.07904042],[-43.64580077,-19.07917966],[-43.64548414,-19.07933987],[-43.64475933,-19.0797595],[-43.64429776,-19.07976141],[-43.64383617,-19.07948099],[-43.64356911,-19.07929983],[-43.64291683,-19.07897747],[-43.64226069,-19.07881917],[-43.64194788,-19.07881726],[-43.64160838,-19.07907282],[-43.64119639,-19.0794219],[-43.64097894,-19.07948866],[-43.6403228,-19.0794467],[-43.63983834,-19.0792617],[-43.63928138,-19.07905569],[-43.63869774,-19.07884779],[-43.63816749,-19.07859412],[-43.63726722,-19.07823175],[-43.63666448,-19.07804669],[-43.6365653,-19.07797803],[-43.63629826,-19.07779493],[-43.63579089,-19.07767859],[-43.63566884,-19.07767668],[-43.63556966,-19.07772627],[-43.63523396,-19.07784071],[-43.63496692,-19.07786742],[-43.6343833,-19.07791128],[-43.63365847,-19.07802763],[-43.63297944,-19.07810011],[-43.63217836,-19.07812682],[-43.63120942,-19.07814971],[-43.63082031,-19.07822028],[-43.62985138,-19.07865899],[-43.62953857,-19.07867997],[-43.62902741,-19.07873145],[-43.62854291,-19.07873145],[-43.62808516,-19.07873338],[-43.62767316,-19.07872956],[-43.62713909,-19.07873529],[-43.62658216,-19.07861704],[-43.62624266,-19.07857506],[-43.62609768,-19.0785274],[-43.62578105,-19.07839005],[-43.62515163,-19.07822793],[-43.62502956,-19.07818598],[-43.62476252,-19.07811541],[-43.62447262,-19.07802383],[-43.62430093,-19.07786362],[-43.62403389,-19.07786171],[-43.62359903,-19.07779496],[-43.6233587,-19.07777207],[-43.62304207,-19.07777398],[-43.62287422,-19.07777208],[-43.62267967,-19.0777263],[-43.62258053,-19.07770151],[-43.62248514,-19.07724564],[-43.62238595,-19.07752032],[-43.62205025,-19.07823558],[-43.6218557,-19.07876771],[-43.62171074,-19.07952493],[-43.62161537,-19.08054157],[-43.62130257,-19.08166882],[-43.62094017,-19.08291622],[-43.62072275,-19.08376881],[-43.62023827,-19.08487699],[-43.61992547,-19.08579633],[-43.61958593,-19.0864887],[-43.61893365,-19.08755112],[-43.61842629,-19.08847237],[-43.61786933,-19.08926011],[-43.61716744,-19.09052851],[-43.61663718,-19.09160808],[-43.61641974,-19.09237102],[-43.61610694,-19.0936604],[-43.61605734,-19.09409717],[-43.61605735,-19.09435468],[-43.61581702,-19.09552767],[-43.61533257,-19.09672552],[-43.61470313,-19.09769827],[-43.61412331,-19.09850699],[-43.61388296,-19.09908304],[-43.61368843,-19.09949692],[-43.61349387,-19.09993369],[-43.61315817,-19.10044106],[-43.61294073,-19.1009961],[-43.61272329,-19.10150538],[-43.61260122,-19.10203179],[-43.61243337,-19.10260972],[-43.61223882,-19.10323152],[-43.61204429,-19.10334787],[-43.61170477,-19.10348522],[-43.61139196,-19.10357675],[-43.61078541,-19.10369503],[-43.60993855,-19.10334979],[-43.60920992,-19.1029149],[-43.60833636,-19.10250102],[-43.60753527,-19.10204325],[-43.60673416,-19.10174381],[-43.6064671,-19.10169613],[-43.60576523,-19.10147105],[-43.60520827,-19.1013795],[-43.60452928,-19.10135662],[-43.6035603,-19.10138142],[-43.60229763,-19.10143101],[-43.60140118,-19.10147679],[-43.6005543,-19.1015035],[-43.60009273,-19.10161603],[-43.59914668,-19.10189449],[-43.59832651,-19.10226835],[-43.59786492,-19.10247243],[-43.59786492,-19.10261167],[-43.59769325,-19.10270512],[-43.59721262,-19.10332884],[-43.5964611,-19.10378852],[-43.59587746,-19.104458],[-43.59486273,-19.10558906],[-43.59428291,-19.10637489],[-43.59382133,-19.10734193],[-43.5932186,-19.10865802],[-43.59263496,-19.10974139],[-43.59210471,-19.11091633],[-43.59149816,-19.11154004],[-43.59084585,-19.1122801],[-43.59060553,-19.11273975],[-43.59041097,-19.11320325],[-43.59004857,-19.11354847],[-43.5892246,-19.11414739],[-43.58876303,-19.11451934],[-43.58801152,-19.11520789],[-43.58757664,-19.11553596],[-43.58677553,-19.11581443],[-43.58643604,-19.11583349],[-43.58590578,-19.11588311],[-43.58532212,-19.11583923],[-43.5843303,-19.11563133],[-43.58352921,-19.11553978],[-43.58253355,-19.11558747],[-43.58188125,-19.11559129],[-43.58071774,-19.1159842],[-43.57940929,-19.11653925],[-43.57863491,-19.11679483],[-43.57800545,-19.11721062],[-43.57679239,-19.11790111],[-43.57650247,-19.11806514],[-43.57606759,-19.11859539],[-43.5753161,-19.11915042],[-43.57456461,-19.11956433],[-43.57393517,-19.11974934],[-43.57349644,-19.11984471],[-43.5726992,-19.11996105],[-43.57189809,-19.12037496],[-43.57131445,-19.12037496],[-43.57051716,-19.12037687],[-43.56913623,-19.12038069],[-43.56792315,-19.12047416],[-43.5666147,-19.12086706],[-43.56595858,-19.12160712],[-43.56574114,-19.12183602],[-43.56542833,-19.12266381],[-43.56513841,-19.12421258],[-43.56470353,-19.12624201],[-43.5641466,-19.12787661],[-43.56366213,-19.12877691],[-43.56313188,-19.12976682],[-43.56286484,-19.13050496],[-43.56233079,-19.13110579],[-43.56153351,-19.13163795],[-43.56041961,-19.13221207],[-43.55954603,-19.13260688],[-43.55862287,-19.1330475],[-43.5585275,-19.13311425],[-43.55797054,-19.1334404],[-43.5574365,-19.1338772],[-43.55687954,-19.13438456],[-43.55654005,-19.13484613],[-43.55620435,-19.13542216],[-43.55610516,-19.13549464],[-43.55593732,-19.13570065],[-43.55547573,-19.13590854],[-43.55499127,-19.13632624],[-43.5544572,-19.13676495],[-43.55387736,-19.13722461],[-43.55356075,-19.13761562],[-43.55348827,-19.13819356],[-43.55346539,-19.13867613],[-43.55353787,-19.1393227],[-43.55368663,-19.14019629],[-43.55388118,-19.14109655],[-43.55404904,-19.14206548],[-43.55407574,-19.14289138],[-43.55407574,-19.14307639],[-43.55407574,-19.1432614],[-43.55400327,-19.14385841],[-43.55376294,-19.1447377],[-43.55335094,-19.14563799],[-43.55298856,-19.14660501],[-43.55252698,-19.14747857],[-43.55230954,-19.14817285],[-43.55185176,-19.14920856],[-43.55143977,-19.15024806],[-43.55100109,-19.15117122],[-43.55059292,-19.15202192],[-43.55020381,-19.15266852],[-43.55005885,-19.15303853],[-43.54986432,-19.15361456],[-43.54976897,-19.15432791],[-43.54967358,-19.1551805],[-43.54972316,-19.1568628],[-43.54985669,-19.1576677],[-43.55063107,-19.15865381],[-43.55089049,-19.15921074],[-43.5511308,-19.15972002],[-43.55129104,-19.16055162],[-43.55137877,-19.16126688],[-43.55137496,-19.1616369],[-43.55119949,-19.16237125],[-43.55097442,-19.16294346],[-43.55087523,-19.16315135],[-43.55079895,-19.16342982],[-43.55069977,-19.16370449],[-43.55062347,-19.16407069],[-43.55054717,-19.1644846],[-43.55047087,-19.16473824],[-43.55029921,-19.16499005],[-43.55022673,-19.1651064],[-43.55012756,-19.16521893],[-43.5499826,-19.16526661],[-43.54949812,-19.16533148],[-43.54898694,-19.16532575],[-43.54845671,-19.1651827],[-43.54821638,-19.16506827],[-43.54794934,-19.16499388],[-43.54756405,-19.16492331],[-43.54693461,-19.16482221],[-43.54611064,-19.16493283],[-43.54571771,-19.16515982],[-43.54537822,-19.1653887],[-43.54486706,-19.16570532],[-43.54440547,-19.16586363],[-43.54391717,-19.16599525],[-43.54299402,-19.16642632],[-43.54219291,-19.16648734],[-43.54101035,-19.16601814],[-43.54045721,-19.16550696],[-43.54012533,-19.16508926],[-43.53978963,-19.16460288],[-43.53924031,-19.16404404],[-43.53897327,-19.16376555],[-43.53849643,-19.16330014],[-43.53806157,-19.16304076],[-43.53772587,-19.1629244],[-43.5372185,-19.16277946],[-43.53649369,-19.16254484],[-43.53624957,-19.16245138],[-43.53586425,-19.16237699],[-43.53550187,-19.16235031],[-43.53518524,-19.16232551],[-43.53489532,-19.1623236],[-43.53465499,-19.16232169],[-43.53424302,-19.16231788],[-43.53383102,-19.16231406],[-43.53339231,-19.16233504],[-43.53293075,-19.16251625],[-43.53266371,-19.16260398],[-43.53208005,-19.16276229],[-43.53149641,-19.16293777],[-43.531134,-19.16305221],[-43.53079069,-19.16322961],[-43.53028333,-19.1634108],[-43.52982174,-19.16352524],[-43.52931058,-19.16367974],[-43.52879939,-19.16388382],[-43.52828441,-19.16443505],[-43.52755197,-19.1648623],[-43.52706752,-19.16508929],[-43.5268005,-19.16520373],[-43.5263618,-19.16538683],[-43.52604517,-19.1654059],[-43.52556069,-19.16542499],[-43.52524788,-19.16542308],[-43.52485877,-19.16541927],[-43.52442391,-19.16541161],[-43.52391655,-19.16510837],[-43.52355414,-19.16510646],[-43.52306966,-19.16519226],[-43.52273015,-19.16528386],[-43.52250891,-19.16539638],[-43.52219228,-19.1655566],[-43.52190236,-19.16566722],[-43.52173072,-19.16587323],[-43.52150945,-19.16607921],[-43.52133779,-19.16626231],[-43.52118901,-19.16639775],[-43.52099445,-19.16658085],[-43.52092197,-19.16680977],[-43.52082281,-19.16690511],[-43.52060155,-19.16703862],[-43.52060537,-19.16683073],[-43.5205863,-19.16644162],[-43.5205405,-19.16616124],[-43.52046804,-19.16590755],[-43.52039935,-19.16558712],[-43.52021243,-19.16510076],[-43.52009418,-19.16482039],[-43.51983096,-19.16433589],[-43.51964022,-19.16412608],[-43.51923204,-19.16372936],[-43.51908708,-19.16354815],[-43.51892305,-19.16333834],[-43.51863694,-19.16284816],[-43.51842332,-19.1623408],[-43.51821351,-19.16169229],[-43.51812196,-19.16118684],[-43.51807618,-19.16093317],[-43.51802659,-19.16079203],[-43.51798463,-19.16044867],[-43.51798463,-19.1602408],[-43.51776717,-19.16009965],[-43.51774812,-19.15989176],[-43.51769853,-19.15975441],[-43.51765275,-19.15961518],[-43.51736283,-19.15961136],[-43.5170462,-19.15956368],[-43.51648924,-19.15981355],[-43.516268,-19.16008632],[-43.51606963,-19.1605002],[-43.51582167,-19.16091029],[-43.51550506,-19.16116396],[-43.51530669,-19.16136615],[-43.51491758,-19.16177815],[-43.51450179,-19.1622359],[-43.51413175,-19.16276615],[-43.51381133,-19.16319721],[-43.51361677,-19.16345279],[-43.51354047,-19.16358823],[-43.51326962,-19.16393345],[-43.51300261,-19.16423101],[-43.51278135,-19.16436452],[-43.51246472,-19.16464108],[-43.51212141,-19.16491384],[-43.51202222,-19.16507596],[-43.51197263,-19.16523429],[-43.51190015,-19.16548605],[-43.51177426,-19.16557951],[-43.51208707,-19.1658122],[-43.51230453,-19.1660678],[-43.51285383,-19.16655607],[-43.51321624,-19.16690702],[-43.51364731,-19.16734763],[-43.513983,-19.16767187],[-43.51431868,-19.16813537],[-43.51443314,-19.16857407],[-43.51450181,-19.16894599],[-43.51449799,-19.16929312],[-43.5143225,-19.16991111],[-43.5142653,-19.17057871],[-43.51421186,-19.17103836],[-43.51406311,-19.17168305],[-43.51395631,-19.17235063],[-43.5139296,-19.1726501],[-43.51384949,-19.17336724],[-43.5137999,-19.17368769],[-43.51379228,-19.17440104],[-43.51378465,-19.1750915],[-43.51380372,-19.1755302],[-43.5137999,-19.1757381],[-43.51394105,-19.17640758],[-43.5140288,-19.17709996],[-43.51414324,-19.17763403],[-43.51416231,-19.17816234],[-43.51420809,-19.17848468],[-43.51410508,-19.17926862],[-43.51371216,-19.17965964],[-43.51332307,-19.17988661],[-43.51302935,-19.18004111],[-43.51271272,-19.1802471],[-43.51239607,-19.18047409],[-43.51204897,-19.1810005],[-43.5118773,-19.18146018],[-43.51142714,-19.1826809],[-43.51129746,-19.18343811],[-43.51119827,-19.1836899],[-43.51078248,-19.18412476],[-43.51046585,-19.18430788],[-43.51000047,-19.18455773],[-43.50943969,-19.18492396],[-43.50885605,-19.1851452],[-43.50856613,-19.18530543],[-43.50815031,-19.18550951],[-43.50785659,-19.18575938],[-43.50756285,-19.18610461],[-43.50734162,-19.18637928],[-43.50712033,-19.18669779],[-43.50694869,-19.1869038],[-43.50672743,-19.18722232],[-43.50660536,-19.18743024],[-43.5063078,-19.18791087],[-43.50608656,-19.18837437],[-43.50601029,-19.18853267],[-43.5058653,-19.18869291],[-43.50566693,-19.18910679],[-43.50546858,-19.18942724],[-43.5053198,-19.18977248],[-43.50514811,-19.19011579],[-43.50507183,-19.19029889],[-43.50497265,-19.19043813],[-43.50470564,-19.19064032],[-43.50455686,-19.19075666],[-43.50443478,-19.19080053],[-43.50421734,-19.19079862],[-43.50404949,-19.19075285],[-43.50395412,-19.19065748],[-43.50354212,-19.19049536],[-43.50310726,-19.19037329],[-43.50276775,-19.19060218],[-43.50257319,-19.19068991],[-43.50235193,-19.19078337],[-43.50206203,-19.19091688],[-43.5014555,-19.19100655],[-43.50099389,-19.19109237],[-43.50079933,-19.19115912],[-43.5006048,-19.19120681],[-43.50028817,-19.19129456],[-43.50014321,-19.1913384],[-43.49962823,-19.1919278],[-43.4990255,-19.19236459],[-43.49839986,-19.19284714],[-43.49748054,-19.19348992],[-43.49654211,-19.19408883],[-43.49547781,-19.19447603],[-43.49468052,-19.19461527],[-43.4940282,-19.19468584],[-43.49337587,-19.19478119],[-43.49279987,-19.19487088],[-43.49233828,-19.19498341],[-43.49183473,-19.19535533],[-43.4915906,-19.19551557],[-43.49149524,-19.19576733],[-43.49115572,-19.19663707],[-43.49055299,-19.19764801],[-43.48937426,-19.19923301],[-43.48884019,-19.19996925],[-43.48850449,-19.20070358],[-43.48823746,-19.20125672],[-43.48809631,-19.20157715],[-43.48804672,-19.20189759],[-43.48782928,-19.20258615],[-43.48734865,-19.20343682],[-43.4868184,-19.20412729],[-43.48628433,-19.20447062],[-43.48580367,-19.20458506],[-43.48510177,-19.20460986],[-43.48399167,-19.20437908],[-43.48251919,-19.20332431],[-43.48174481,-19.20282076],[-43.48111537,-19.20226953],[-43.48063089,-19.20160005],[-43.48010065,-19.2007284],[-43.47978782,-19.20013521],[-43.4795704,-19.19958207],[-43.47937584,-19.19907853],[-43.47905921,-19.19847962],[-43.47889136,-19.19822595],[-43.47869683,-19.19811151],[-43.47780417,-19.19811151],[-43.47720144,-19.1985273],[-43.47645377,-19.19937419],[-43.47505375,-19.2005472],[-43.47350877,-19.20167255],[-43.47305102,-19.20208836],[-43.47244831,-19.2026167],[-43.47186847,-19.20307257],[-43.47126573,-19.20348836],[-43.47070877,-19.20392515],[-43.47012895,-19.20426849],[-43.46988862,-19.2044287],[-43.46933167,-19.20512108],[-43.46827119,-19.20622351],[-43.46769134,-19.20672897],[-43.46752349,-19.20681673],[-43.46701613,-19.20683964],[-43.46638671,-19.2066584],[-43.46573438,-19.20615295],[-43.46500959,-19.2056494],[-43.46433438,-19.20502951],[-43.46346461,-19.20447449],[-43.46257197,-19.20376305],[-43.46148476,-19.20289136],[-43.46056542,-19.20199875],[-43.45967276,-19.20126249],[-43.45911582,-19.2007342],[-43.45836812,-19.19999982],[-43.45764334,-19.19942573],[-43.45715886,-19.19905951],[-43.45670108,-19.19866849],[-43.45650653,-19.19804669],[-43.4562662,-19.19790937],[-43.45607164,-19.1976824],[-43.45578174,-19.19740392],[-43.45517901,-19.19740392],[-43.45442749,-19.19740583],[-43.45317243,-19.19742681],[-43.45182205,-19.19758707],[-43.45102476,-19.19811919],[-43.45046783,-19.19820885],[-43.44974684,-19.19841484],[-43.44921277,-19.19868949],[-43.44824765,-19.1991301],[-43.446943,-19.19974618],[-43.44646237,-19.20002274],[-43.44561549,-19.2005301],[-43.44462746,-19.20112711],[-43.44327324,-19.20206936],[-43.44250268,-19.20261868],[-43.44158714,-19.2031928],[-43.44076317,-19.20369632],[-43.43987051,-19.20429333],[-43.43895497,-19.2048007],[-43.43808522,-19.20516883],[-43.43702092,-19.20532713],[-43.43596042,-19.20548926],[-43.43504108,-19.20597374],[-43.4342705,-19.20641053],[-43.43337784,-19.20693506],[-43.43253098,-19.20751106],[-43.43156585,-19.20852006],[-43.43052825,-19.20897975],[-43.42960889,-19.20946041],[-43.42849882,-19.20978465],[-43.42760616,-19.21033206],[-43.42654186,-19.21115985],[-43.42548136,-19.21191901],[-43.42482906,-19.21244542],[-43.42379144,-19.21325034],[-43.42244103,-19.21405525],[-43.42166666,-19.21499747],[-43.42072441,-19.21598359],[-43.41985467,-19.21685715],[-43.4197593,-19.21692393],[-43.41949608,-19.21743127],[-43.41915659,-19.21791193],[-43.4186988,-19.21844218],[-43.41835928,-19.2188084],[-43.41829062,-19.21952175],[-43.41821814,-19.22025799],[-43.41821814,-19.22099423],[-43.41821814,-19.22149586],[-43.41836311,-19.22206996],[-43.41855766,-19.22250675],[-43.41908792,-19.22322012],[-43.41956858,-19.22361302],[-43.42007592,-19.22397924],[-43.42094569,-19.22462202],[-43.42169337,-19.22519423],[-43.42227322,-19.22565579],[-43.4233795,-19.22663997],[-43.42386395,-19.22721411],[-43.42429884,-19.22790457],[-43.42468413,-19.22870756],[-43.42480621,-19.22942282],[-43.42487869,-19.2298558],[-43.42492447,-19.23013238],[-43.42526399,-19.23144082],[-43.42533647,-19.23236207],[-43.42545853,-19.23364763],[-43.42545853,-19.23440484],[-43.42543564,-19.23518688],[-43.42531359,-19.23585063],[-43.42507324,-19.23653919],[-43.42483294,-19.23741275],[-43.42447053,-19.23812419],[-43.42434846,-19.23830732],[-43.42427598,-19.23861058],[-43.42401276,-19.23918088],[-43.42394028,-19.23925336],[-43.42389069,-19.23952803],[-43.42381819,-19.24042257],[-43.42381819,-19.24056181],[-43.42379533,-19.24124845],[-43.42374574,-19.24157272],[-43.42372285,-19.24175391],[-43.42369996,-19.24207435],[-43.42365037,-19.24232802],[-43.42343293,-19.24274002],[-43.4229027,-19.24340951],[-43.4225403,-19.24396264],[-43.42210541,-19.2446264],[-43.42181931,-19.24609697],[-43.42181932,-19.24758852],[-43.42181932,-19.24887598],[-43.42174684,-19.24972286],[-43.42160188,-19.25076236],[-43.421579,-19.25124111],[-43.421579,-19.25158827],[-43.42167437,-19.2522978],[-43.42176974,-19.25296346],[-43.42181933,-19.25312558],[-43.42181933,-19.25333348],[-43.42181933,-19.25365393],[-43.42186893,-19.25406592],[-43.42198716,-19.25461906],[-43.42210926,-19.25509779],[-43.42215885,-19.25546973],[-43.42218174,-19.25590273],[-43.42218174,-19.25663895],[-43.42198716,-19.25686782],[-43.4219643,-19.25700705],[-43.42174686,-19.2571692],[-43.42150653,-19.25741905],[-43.42123949,-19.25767463],[-43.42114413,-19.25774141],[-43.42090382,-19.25790162],[-43.42035068,-19.25859208],[-43.42006076,-19.25886673],[-43.41964876,-19.25914332],[-43.41877902,-19.25965068],[-43.41788634,-19.26010843],[-43.41663514,-19.26086377],[-43.41578826,-19.26143977],[-43.41501768,-19.26178501],[-43.41419753,-19.26226567],[-43.41349943,-19.26249455],[-43.41277462,-19.26275015],[-43.41226728,-19.26288748],[-43.41207654,-19.26291228],[-43.41154247,-19.26314306],[-43.41146999,-19.26353026],[-43.41156918,-19.26470138],[-43.41171415,-19.26603462],[-43.411882,-19.26684143],[-43.41193159,-19.26725154],[-43.41161496,-19.26768829],[-43.41089398,-19.26856188],[-43.41019208,-19.26936487],[-43.40968853,-19.2697578],[-43.40929943,-19.27023843],[-43.40918117,-19.27067523],[-43.40913158,-19.27122646],[-43.40913158,-19.2717758],[-43.40949399,-19.2727428],[-43.40978391,-19.27315479],[-43.4102188,-19.27343137],[-43.41045913,-19.27365834],[-43.41137465,-19.27471881],[-43.41142425,-19.27483136],[-43.41137465,-19.27607497],[-43.41096648,-19.27731284],[-43.41050873,-19.2779766],[-43.40978393,-19.27866706],[-43.40937575,-19.27933273],[-43.40932616,-19.2795616],[-43.40932616,-19.28013572],[-43.40923082,-19.28107797],[-43.40901335,-19.28208883],[-43.40884551,-19.28362811],[-43.40894088,-19.28454554],[-43.4092804,-19.28588069],[-43.41000139,-19.28727879],[-43.41099321,-19.28840793],[-43.4117638,-19.28985182],[-43.41227117,-19.29109351],[-43.41241613,-19.29166762],[-43.41261067,-19.29277197],[-43.41301885,-19.29359787],[-43.41306844,-19.29396407],[-43.41325918,-19.29476899],[-43.41343085,-19.29550332],[-43.41374366,-19.29663055],[-43.41403359,-19.29743356],[-43.41420144,-19.29821557],[-43.41430058,-19.29869623],[-43.41437309,-19.29920169],[-43.41444557,-19.29961366],[-43.41446845,-19.29984444],[-43.41454094,-19.30050822],[-43.41451805,-19.30096979],[-43.41446846,-19.30110905],[-43.41422815,-19.30140467],[-43.41393823,-19.30172703],[-43.41372079,-19.30191204],[-43.41350335,-19.30202648],[-43.41323631,-19.30218669],[-43.41297309,-19.30228017],[-43.41253821,-19.30234881],[-43.41222542,-19.30237172],[-43.41190882,-19.3023927],[-43.41171806,-19.3024175],[-43.41130606,-19.30250905],[-43.41099325,-19.30264637],[-43.41060798,-19.30308126],[-43.41005102,-19.30379461],[-43.40966574,-19.30448316],[-43.40952078,-19.30549217],[-43.4094483,-19.30657744],[-43.40949789,-19.30753876],[-43.41010063,-19.30978945],[-43.41039054,-19.31123713],[-43.41084831,-19.31266001],[-43.41118783,-19.31353548],[-43.41195842,-19.31518535],[-43.41234751,-19.31668073],[-43.4131448,-19.31782894],[-43.41328976,-19.31805784],[-43.41379331,-19.31877119],[-43.41410992,-19.31922896],[-43.41427777,-19.31948454],[-43.41437314,-19.3197325],[-43.41471266,-19.32040006],[-43.41522002,-19.32129462],[-43.4156778,-19.32191833],[-43.41620803,-19.32244667],[-43.41664291,-19.32269843],[-43.41729524,-19.32281286],[-43.4183557,-19.32297501],[-43.41929798,-19.32327254],[-43.4202402,-19.32359296],[-43.42093831,-19.32398207],[-43.42195304,-19.32503875],[-43.42306312,-19.32657988],[-43.42349801,-19.32715209],[-43.42371545,-19.327751],[-43.42402824,-19.32859788],[-43.42436776,-19.32915291],[-43.42473016,-19.32995592],[-43.4249209,-19.33062156],[-43.42518794,-19.33119188],[-43.42557323,-19.33197771],[-43.42579068,-19.33245837],[-43.42610728,-19.3329848],[-43.42651546,-19.33351315],[-43.4267825,-19.33390414],[-43.42716779,-19.33434093],[-43.42789258,-19.33505046],[-43.42803754,-19.33514201],[-43.42808332,-19.33528315],[-43.42813291,-19.33549107],[-43.42811003,-19.33670606],[-43.42794218,-19.33750905],[-43.42774763,-19.33856953],[-43.42745773,-19.33939352],[-43.4272174,-19.33971583],[-43.42687788,-19.34001533],[-43.42632475,-19.34072486],[-43.42593946,-19.34162131],[-43.42588986,-19.34171479],[-43.42562285,-19.34208292],[-43.42531004,-19.34247392],[-43.42487516,-19.34300226],[-43.42436779,-19.34355347],[-43.42412747,-19.34387201],[-43.42369261,-19.34451479],[-43.42328443,-19.3450889],[-43.42294491,-19.34580416],[-43.4226321,-19.34635349],[-43.42255962,-19.34646983],[-43.42239177,-19.34665295],[-43.42212474,-19.34752843],[-43.42149914,-19.34821316],[-43.42065226,-19.34899709],[-43.42007242,-19.34961507],[-43.41944682,-19.3501663],[-43.41910731,-19.35048864],[-43.41862665,-19.35092543],[-43.41811928,-19.35147666],[-43.41688716,-19.35225677],[-43.41626152,-19.35241891],[-43.41568169,-19.35262681],[-43.41512473,-19.35285568],[-43.41466696,-19.35299303],[-43.41447623,-19.3530636],[-43.41389638,-19.35324861],[-43.41304952,-19.35351945],[-43.41295415,-19.35359193],[-43.41280919,-19.35363579],[-43.41230183,-19.35379794],[-43.41169912,-19.35386469],[-43.41046694,-19.35386851],[-43.40935687,-19.35407068],[-43.40805224,-19.35421374],[-43.40715958,-19.35430529],[-43.40655685,-19.3543034],[-43.40559173,-19.35428241],[-43.40474867,-19.35416604],[-43.40426419,-19.35404972],[-43.40329907,-19.35379605],[-43.40230725,-19.35338599],[-43.4014413,-19.35308461],[-43.40054864,-19.35269744],[-43.39943475,-19.35207371],[-43.39846961,-19.35164073],[-43.39750447,-19.35124783],[-43.3967568,-19.3510876],[-43.39571918,-19.35087971],[-43.39545216,-19.35076336],[-43.39526143,-19.35072141],[-43.39499439,-19.35067372],[-43.39487614,-19.3505154],[-43.39480365,-19.35039714],[-43.39448705,-19.35012249],[-43.39402928,-19.35030368],[-43.39335406,-19.35088162],[-43.39308703,-19.35138517],[-43.39296877,-19.35196119],[-43.39241184,-19.35243994],[-43.3914467,-19.35354238],[-43.390432,-19.35457809],[-43.38963471,-19.35519798],[-43.38874206,-19.3557969],[-43.38777694,-19.35611732],[-43.38724669,-19.35636911],[-43.38681181,-19.35657894],[-43.38642654,-19.35673722],[-43.38628158,-19.3568307],[-43.38601454,-19.35705958],[-43.38548429,-19.35744678],[-43.38475951,-19.35820972],[-43.38386685,-19.35917293],[-43.38326412,-19.35986337],[-43.38253931,-19.36045658],[-43.38200909,-19.36140074],[-43.38118891,-19.36204352],[-43.38099436,-19.36215605],[-43.38087231,-19.36224951],[-43.38034205,-19.36270919],[-43.37966684,-19.36314598],[-43.37891915,-19.36351027],[-43.37831644,-19.3637659],[-43.37814477,-19.36380974],[-43.37754204,-19.36401764],[-43.37730171,-19.36417785],[-43.37672188,-19.36482254],[-43.37626411,-19.36557787],[-43.37616493,-19.36569422],[-43.37515022,-19.36652201],[-43.37471916,-19.36691112],[-43.37404012,-19.36751003],[-43.37384939,-19.36767024],[-43.37331914,-19.36812611],[-43.37268972,-19.36847324],[-43.37217474,-19.36880321],[-43.37237691,-19.36881848],[-43.37343739,-19.36899967],[-43.37428428,-19.36927813],[-43.37529517,-19.36968822],[-43.3755622,-19.36978168],[-43.37585211,-19.37058469],[-43.37587502,-19.37070104],[-43.37577965,-19.37178058],[-43.37536768,-19.37309096],[-43.37519981,-19.37391684],[-43.37502817,-19.37481329],[-43.37488319,-19.37612174],[-43.37447501,-19.37729286],[-43.37396767,-19.37821031],[-43.37353279,-19.37908197],[-43.37312082,-19.37974763],[-43.37264016,-19.38050676],[-43.3725677,-19.38060024],[-43.37251808,-19.38068988],[-43.3724456,-19.38080814],[-43.37220525,-19.38126591],[-43.37188865,-19.38186482],[-43.37162543,-19.38218334],[-43.37119059,-19.38264299],[-43.37085106,-19.38301113],[-43.37066032,-19.38319427],[-43.37053825,-19.383261],[-43.37019873,-19.38360622],[-43.37012625,-19.3836787],[-43.36986303,-19.38395147],[-43.36974096,-19.38404493],[-43.36969139,-19.38448172],[-43.36969139,-19.38473157],[-43.36966848,-19.38496047],[-43.36966848,-19.38668661],[-43.36966849,-19.38728362],[-43.36971808,-19.38794738],[-43.36990882,-19.38801606],[-43.37130884,-19.38847762],[-43.3733154,-19.38957817],[-43.37432629,-19.39017517],[-43.37517317,-19.39058907],[-43.37621077,-19.39118987],[-43.37686309,-19.39153511],[-43.37773284,-19.39189942],[-43.37843095,-19.392155],[-43.37898791,-19.39245254],[-43.38009798,-19.39256699],[-43.38118517,-19.39270241],[-43.38234105,-19.39288932],[-43.38246312,-19.39291221],[-43.38251271,-19.39300376],[-43.38287512,-19.39327843],[-43.38333287,-19.39369231],[-43.38376775,-19.39428931],[-43.38386312,-19.39442857],[-43.38400809,-19.39525254],[-43.38422553,-19.3959678],[-43.3847329,-19.39695391],[-43.38516776,-19.3977569],[-43.38579336,-19.39906727],[-43.38596506,-19.39998659],[-43.38611002,-19.40092693],[-43.3861825,-19.40219342],[-43.38596506,-19.40304025],[-43.38555307,-19.40370405],[-43.38531274,-19.40400541],[-43.38477872,-19.40485417],[-43.38393563,-19.40616644],[-43.38347789,-19.40699234],[-43.38250893,-19.40857544],[-43.38176124,-19.40933077],[-43.38134927,-19.40983811],[-43.38062446,-19.41080325],[-43.37985388,-19.41218227],[-43.37946862,-19.41312258],[-43.37934657,-19.41337435],[-43.37934657,-19.41459508],[-43.37944192,-19.41619915],[-43.37946481,-19.41757819],[-43.37960977,-19.41847274],[-43.38002175,-19.41955231],[-43.38052912,-19.42051933],[-43.3815896,-19.4217839],[-43.38263104,-19.42272424],[-43.38349697,-19.42382479],[-43.38417601,-19.42442179],[-43.38506867,-19.42543267],[-43.38574386,-19.42617082],[-43.38583921,-19.42635203],[-43.38649156,-19.42731523],[-43.38656404,-19.42809725],[-43.38668612,-19.42876293],[-43.38678149,-19.42975284],[-43.38670901,-19.4304166],[-43.38654116,-19.43126919],[-43.3863962,-19.43181851],[-43.38634661,-19.43195774],[-43.38632372,-19.43241933],[-43.38690357,-19.43266729],[-43.38803654,-19.43301251],[-43.38905127,-19.43345121],[-43.39021096,-19.43397955],[-43.3913439,-19.43473485],[-43.39274772,-19.43586402],[-43.39412486,-19.43701034],[-43.39508998,-19.43765502],[-43.39615049,-19.43843703],[-43.39692487,-19.4388948],[-43.39834778,-19.43951278],[-43.39943497,-19.43978934],[-43.40044968,-19.44020515],[-43.40158648,-19.44070678],[-43.40262408,-19.44133047],[-43.40313145,-19.44169669],[-43.40349385,-19.44247679],[-43.40361211,-19.44259123],[-43.40380666,-19.44312148],[-43.40392874,-19.44371848],[-43.40407368,-19.44438415],[-43.40411948,-19.44459207],[-43.40431403,-19.44466073],[-43.40465353,-19.44463784],[-43.4054737,-19.44452338],[-43.40622138,-19.44436126],[-43.40745355,-19.44390348],[-43.40817833,-19.44360213],[-43.40880775,-19.44337325],[-43.40950587,-19.44298223],[-43.41035273,-19.44263703],[-43.41095546,-19.44238522],[-43.4115124,-19.44217733],[-43.41197019,-19.44199611],[-43.41211513,-19.44192554],[-43.41247754,-19.44185497],[-43.41303068,-19.44178821],[-43.41358761,-19.44176533],[-43.4139729,-19.44180919],[-43.41448027,-19.44199611],[-43.4147969,-19.44217923],[-43.41513257,-19.44229366],[-43.41581161,-19.44249965],[-43.41629227,-19.44245387],[-43.41670426,-19.44227268],[-43.41701707,-19.44213536],[-43.41798219,-19.44192553],[-43.41815386,-19.44190455],[-43.41841707,-19.44194841],[-43.41863452,-19.44208576],[-43.41909609,-19.44284489],[-43.41906938,-19.44357921],[-43.41897401,-19.44413044],[-43.41887865,-19.44465879],[-43.41870701,-19.44550946],[-43.41848956,-19.44633534],[-43.4183942,-19.44679502],[-43.4183446,-19.44689039],[-43.41832172,-19.44700292],[-43.41832172,-19.4472547],[-43.41837131,-19.44778495],[-43.41849339,-19.44844871],[-43.41861165,-19.44904571],[-43.41882909,-19.44964462],[-43.41907322,-19.45049146],[-43.41911899,-19.45076806],[-43.41916859,-19.45108851],[-43.4192182,-19.45138795],[-43.41924107,-19.45173508],[-43.41929066,-19.45201166],[-43.41943563,-19.45299775],[-43.41945852,-19.45352609],[-43.419119,-19.45480974],[-43.41868414,-19.45538577],[-43.41805852,-19.45620974],[-43.41718876,-19.45697078],[-43.4156438,-19.45846235],[-43.41470157,-19.45951901],[-43.41383178,-19.46050513],[-43.41296206,-19.46163239],[-43.41228303,-19.46289506],[-43.4116803,-19.46441331],[-43.41153534,-19.46480433],[-43.41073808,-19.46714657],[-43.41049776,-19.46840924],[-43.41025743,-19.46903105],[-43.40996751,-19.46948879],[-43.40975007,-19.46999234],[-43.40943346,-19.47052259],[-43.40897569,-19.47144002],[-43.4088536,-19.47251959],[-43.40849122,-19.47359916],[-43.4083234,-19.47449752],[-43.40808304,-19.47529863],[-43.40801056,-19.47559617],[-43.40798386,-19.47573731],[-43.4074765,-19.47704575],[-43.4072133,-19.47782588],[-43.40701875,-19.47853732],[-43.40675172,-19.47936702],[-43.40643891,-19.48071933],[-43.40564165,-19.48267247],[-43.40506181,-19.48411826],[-43.40465363,-19.4848087],[-43.40426452,-19.48552017],[-43.40407379,-19.4860466],[-43.40315445,-19.48687437],[-43.40245253,-19.4876545],[-43.40153701,-19.48852617],[-43.40102965,-19.48903354],[-43.40037732,-19.48972209],[-43.39924054,-19.4905022],[-43.39897351,-19.49073108],[-43.39882854,-19.49087033],[-43.39757351,-19.49178967],[-43.39658167,-19.49238668],[-43.39559367,-19.49291502],[-43.39452937,-19.4935826],[-43.39356423,-19.49426925],[-43.39286234,-19.49486816],[-43.39274026,-19.49493492],[-43.39254953,-19.49509704],[-43.39199257,-19.49557961],[-43.39141272,-19.49603929],[-43.39030262,-19.49672593],[-43.38955116,-19.49718753],[-43.38916587,-19.49750604],[-43.38873098,-19.49794474],[-43.38853643,-19.49817362],[-43.38839147,-19.49858752],[-43.38817403,-19.49893274],[-43.38815114,-19.49952975],[-43.38812825,-19.49973767],[-43.38805577,-19.50022785],[-43.38950919,-19.50272075],[-43.3897457,-19.50260632],[-43.389822,-19.50253383],[-43.39042474,-19.50205129],[-43.39098169,-19.50170986],[-43.39134407,-19.5016412],[-43.39175607,-19.50159352],[-43.39197351,-19.50154583],[-43.39250759,-19.50154583],[-43.39323237,-19.50175181],[-43.39403348,-19.50182238],[-43.39500241,-19.50211994],[-43.39584927,-19.50255671],[-43.39623454,-19.50269596],[-43.39679152,-19.50285427],[-43.39725311,-19.50311175],[-43.39756972,-19.50329485],[-43.39790542,-19.50354663],[-43.3984166,-19.50384415],[-43.39904602,-19.50416652],[-43.39972506,-19.5048589],[-43.40032779,-19.50536053],[-43.40102969,-19.50586787],[-43.40151419,-19.50618831],[-43.40229237,-19.50646678],[-43.40299429,-19.50653544],[-43.40371907,-19.50657933],[-43.40405859,-19.50646487],[-43.40459266,-19.50616733],[-43.40538992,-19.50586597],[-43.40638177,-19.5053834],[-43.40773981,-19.50496949],[-43.40880411,-19.5045995],[-43.40970056,-19.50432289],[-43.41006296,-19.50418557],[-43.41078777,-19.50400244],[-43.41170711,-19.50358665],[-43.41236328,-19.50333489],[-43.41274855,-19.50310408],[-43.41318722,-19.50282752],[-43.41376707,-19.50259674],[-43.4144194,-19.5024575],[-43.41524337,-19.5024117],[-43.41575073,-19.50236593],[-43.41647936,-19.50236402],[-43.41713166,-19.50254907],[-43.41829518,-19.50284849],[-43.41943194,-19.50312125],[-43.42030552,-19.5032147],[-43.42093494,-19.5032147],[-43.42110279,-19.50314413],[-43.4214919,-19.50300869],[-43.42197256,-19.50289046],[-43.42221668,-19.50279698],[-43.42257909,-19.50268254],[-43.42304068,-19.50254712],[-43.42323141,-19.50247655],[-43.42352516,-19.50236211],[-43.42417746,-19.50215419],[-43.42526846,-19.50169453],[-43.4262336,-19.50148661],[-43.42727502,-19.50134547],[-43.42928539,-19.50155336],[-43.43018184,-19.50166973],[-43.43086087,-19.50173457],[-43.43122328,-19.50180514],[-43.43192517,-19.50189669],[-43.43250502,-19.50194246],[-43.43279876,-19.50199014],[-43.43313446,-19.50210267],[-43.43350066,-19.50221713],[-43.43463746,-19.50191575],[-43.43565599,-19.50191575],[-43.43580095,-19.50191766],[-43.4359688,-19.50191766],[-43.43657533,-19.50198632],[-43.43705981,-19.50205498],[-43.43773502,-19.50237733],[-43.43844074,-19.50308686],[-43.43884892,-19.50322609],[-43.43909307,-19.50336344],[-43.43979497,-19.50361902],[-43.4401116,-19.50368959],[-43.44025656,-19.50375825],[-43.440474,-19.50380021],[-43.44071433,-19.50393753],[-43.44093177,-19.50410347],[-43.44100803,-19.50432855],[-43.44103094,-19.50483591],[-43.44103094,-19.50550349],[-43.44103094,-19.50630839],[-43.44100803,-19.50711711],[-43.44091269,-19.50826725],[-43.44076773,-19.50941739],[-43.44062278,-19.51033864],[-43.44045495,-19.51109586],[-43.44030999,-19.51160131],[-43.44009255,-19.5123166],[-43.43982552,-19.51302801],[-43.43975304,-19.51360595],[-43.4395356,-19.5145024],[-43.43931816,-19.51551331],[-43.43922279,-19.51613511],[-43.43922279,-19.51670923],[-43.43922279,-19.51763047],[-43.43932198,-19.51853074],[-43.43936776,-19.51901331],[-43.43936776,-19.51977243],[-43.43937158,-19.52050867],[-43.4392724,-19.52110568],[-43.43903207,-19.5219106],[-43.43874215,-19.52285282],[-43.43842554,-19.52320186],[-43.43796777,-19.52389044],[-43.43733833,-19.52444544],[-43.43668603,-19.52504438],[-43.43620155,-19.52543349],[-43.436007,-19.52575583],[-43.43581245,-19.52598472],[-43.43516014,-19.52669807],[-43.43469855,-19.52713675],[-43.43433615,-19.52741334],[-43.43397375,-19.52755066],[-43.43329474,-19.52766701],[-43.43273778,-19.52803705],[-43.43225333,-19.52835747],[-43.432013,-19.52845093],[-43.431601,-19.52860926],[-43.43109363,-19.52879427],[-43.43031926,-19.52913949],[-43.4301247,-19.5291662],[-43.43002933,-19.52925589],[-43.42944567,-19.5293951],[-43.42896121,-19.52953433],[-43.42840426,-19.52969263],[-43.42746201,-19.52978801],[-43.42687837,-19.53031635],[-43.42661515,-19.53091526],[-43.42632523,-19.53188419],[-43.42622604,-19.53287224],[-43.42622987,-19.53360845],[-43.42622987,-19.5343218],[-43.42622987,-19.53526594],[-43.42620317,-19.5357218],[-43.42615739,-19.5365992],[-43.42601245,-19.53710273],[-43.42591325,-19.53744988],[-43.42581788,-19.53781989],[-43.42576831,-19.53793245],[-43.4257454,-19.53862291],[-43.42581788,-19.53947738],[-43.42603915,-19.54037385],[-43.4262337,-19.54120164],[-43.42637867,-19.54234987],[-43.42659611,-19.54359538],[-43.4266686,-19.54476459],[-43.42642827,-19.54536353],[-43.42628331,-19.54566486],[-43.42616123,-19.54589567],[-43.42594379,-19.54640301],[-43.4255318,-19.54679212],[-43.42509694,-19.54709157],[-43.42480701,-19.54732428],[-43.42468494,-19.54743681],[-43.42453998,-19.54759702],[-43.42337649,-19.54856789],[-43.42291872,-19.54888831],[-43.42255632,-19.54923356],[-43.42209475,-19.54971801],[-43.42202227,-19.54980767],[-43.42197268,-19.55010903],[-43.42194979,-19.55022156],[-43.42192688,-19.55061448],[-43.42192688,-19.55089104],[-43.42192689,-19.5515815],[-43.42199939,-19.55229485],[-43.42219392,-19.55296052],[-43.42257922,-19.55348888],[-43.42340321,-19.554042],[-43.42398686,-19.55434144],[-43.42434926,-19.55459323],[-43.42517323,-19.55505099],[-43.42621467,-19.55551256],[-43.42745064,-19.556224],[-43.42832421,-19.55661501],[-43.42907572,-19.55691446],[-43.42943813,-19.55712237],[-43.42989588,-19.55737413],[-43.43011714,-19.55758394],[-43.43047954,-19.5578815],[-43.43074658,-19.55818094],[-43.43110898,-19.55843272],[-43.43125392,-19.55854716],[-43.43161633,-19.55857196],[-43.43212751,-19.55854525],[-43.43270733,-19.55843272],[-43.4336267,-19.55875314],[-43.43430571,-19.55879891],[-43.43493515,-19.55889046],[-43.43566375,-19.55898203],[-43.43656023,-19.55900492],[-43.43755205,-19.55875122],[-43.43871553,-19.55789864],[-43.43977985,-19.55725586],[-43.44074878,-19.55642425],[-43.4414507,-19.55555068],[-43.44212589,-19.55483733],[-43.44299948,-19.55405529],[-43.44370135,-19.55366241],[-43.44445289,-19.5532275],[-43.44488777,-19.55304059],[-43.44503273,-19.55304249],[-43.44595207,-19.55285557],[-43.44687141,-19.55264765],[-43.44764966,-19.55269343],[-43.44856897,-19.55271633],[-43.44951504,-19.55262476],[-43.45048397,-19.5525065],[-43.45193357,-19.55246072],[-43.45285672,-19.55206973],[-43.45353194,-19.55211741],[-43.45438262,-19.55250267],[-43.45544694,-19.55285173],[-43.45632048,-19.55314736],[-43.45738481,-19.55328852],[-43.45830417,-19.55342203],[-43.45920062,-19.55347162],[-43.46005132,-19.55349068],[-43.46068074,-19.55339722],[-43.46155051,-19.55328279],[-43.46220661,-19.55318933],[-43.46293144,-19.55302909],[-43.46390037,-19.55286887],[-43.46481974,-19.55268386],[-43.46593363,-19.55249885],[-43.46668514,-19.55238251],[-43.46726497,-19.5523825],[-43.46799357,-19.55238059],[-43.46886716,-19.55240539],[-43.47005353,-19.55270101],[-43.47138487,-19.5529547],[-43.47267043,-19.55318357],[-43.47363939,-19.55334567],[-43.47443666,-19.55352879],[-43.47531025,-19.55371191],[-43.47589007,-19.55380155],[-43.47632495,-19.55384732],[-43.47712606,-19.55396176],[-43.47799963,-19.55416777],[-43.47852988,-19.554307],[-43.4792356,-19.55449009],[-43.48022742,-19.55478765],[-43.48107432,-19.5550375],[-43.48160835,-19.55515576],[-43.48216531,-19.55533697],[-43.48303887,-19.55545331],[-43.48412609,-19.55545331],[-43.48499965,-19.55535985],[-43.48625851,-19.55508135],[-43.48746779,-19.5552187],[-43.48809721,-19.55503367],[-43.4885588,-19.55475711],[-43.4892836,-19.5543432],[-43.49025254,-19.55392743],[-43.49141602,-19.55302902],[-43.49320895,-19.55219932],[-43.49378879,-19.55199143],[-43.49410158,-19.55189988],[-43.49473102,-19.55166907],[-43.49560458,-19.55155463],[-43.49637899,-19.55148408],[-43.49693594,-19.55148408],[-43.49739751,-19.55155272],[-43.49793158,-19.55189605],[-43.49836647,-19.55239959],[-43.49892341,-19.55309196],[-43.49936211,-19.55343909],[-43.499797,-19.55394455],[-43.50033105,-19.55449386],[-43.50049508,-19.55465789],[-43.50051797,-19.55479904],[-43.50064768,-19.55519387],[-43.50094903,-19.5555162],[-43.50137247,-19.55564591],[-43.50165096,-19.55575271],[-43.50197902,-19.55578706],[-43.50222317,-19.55583474],[-43.50252834,-19.55593204],[-43.50266185,-19.55598731],[-43.5028297,-19.55604645],[-43.50318067,-19.55613036],[-43.50355832,-19.55615707],[-43.50419156,-19.55616279],[-43.50472563,-19.55608456],[-43.50543134,-19.55589576],[-43.50604171,-19.55570311],[-43.5064308,-19.55549903],[-43.50676268,-19.5552835],[-43.50732346,-19.55490966],[-43.50755615,-19.5545854],[-43.50774306,-19.55380529],[-43.50784227,-19.55348676],[-43.50791855,-19.55315297],[-43.50805205,-19.55299085],[-43.50812835,-19.55283445],[-43.50830002,-19.55238241],[-43.50843352,-19.55214588],[-43.50852128,-19.55199712],[-43.5086319,-19.55167285],[-43.50871965,-19.55136577],[-43.50885316,-19.55124945],[-43.50907439,-19.55124179],[-43.50930329,-19.55108158],[-43.5096466,-19.55086222],[-43.50989075,-19.55077449],[-43.5101349,-19.55066387],[-43.51024552,-19.5505933],[-43.51042864,-19.55051318],[-43.51053546,-19.55045977],[-43.51068422,-19.55037968],[-43.51087878,-19.55047123],[-43.51104662,-19.55061237],[-43.51118013,-19.55072681],[-43.51126407,-19.5509347],[-43.51135944,-19.55115214],[-43.51155017,-19.55177776],[-43.51161884,-19.55211346],[-43.51173709,-19.55244343],[-43.51197743,-19.55277912],[-43.51207661,-19.55296604],[-43.51214907,-19.55307096],[-43.51269078,-19.55361646],[-43.51269078,-19.55377476],[-43.5127251,-19.55393688],[-43.51284336,-19.55421346],[-43.51303791,-19.55460827],[-43.51326299,-19.55519384],[-43.51408315,-19.55601781],[-43.51449515,-19.55636494],[-43.51501394,-19.55663581],[-43.5156205,-19.55689328],[-43.51608209,-19.55705542],[-43.51650552,-19.55713933],[-43.51683358,-19.55714315],[-43.51767283,-19.55709165],[-43.51871806,-19.55711262],[-43.51915676,-19.55706685],[-43.51983577,-19.55704014],[-43.52014094,-19.55703062],[-43.52134641,-19.55689136],[-43.5227197,-19.55683033],[-43.52324232,-19.55683415],[-43.52355895,-19.55683605],[-43.52406632,-19.55692187],[-43.52423796,-19.55699054],[-43.52447829,-19.55706493],[-43.52474533,-19.55714504],[-43.52524506,-19.55737964],[-43.52583634,-19.55780877],[-43.52630938,-19.55820552],[-43.52674424,-19.55856601],[-43.52723636,-19.55899326],[-43.52759874,-19.55929463],[-43.52801456,-19.55931179],[-43.528232,-19.55940523],[-43.52853336,-19.55955594],[-43.52863257,-19.55971997],[-43.52872791,-19.55977338],[-43.52883474,-19.55987827],[-43.52896824,-19.55996221],[-43.52905218,-19.56004421],[-43.52913991,-19.56011096],[-43.52925817,-19.56018153],[-43.52947561,-19.56034558],[-43.52975408,-19.56056491],[-43.5299105,-19.56070605],[-43.53007071,-19.56085674],[-43.53018896,-19.56096927],[-43.53037206,-19.56111041],[-43.5305628,-19.5612611],[-43.5307459,-19.56143468],[-43.53087943,-19.56156245],[-43.5309748,-19.56165782],[-43.53104728,-19.56178562],[-43.53109687,-19.56196684],[-43.53116554,-19.56222051],[-43.53127234,-19.56276219],[-43.53137916,-19.56314366],[-43.53145164,-19.56344122],[-43.53149742,-19.563672],[-43.53154319,-19.56382272],[-43.53158133,-19.56392567],[-43.53186744,-19.56429953],[-43.53195519,-19.56440442],[-43.53220696,-19.56487556],[-43.53243586,-19.56522078],[-43.53263803,-19.56563852],[-43.53295084,-19.56598372],[-43.53325219,-19.56626219],[-43.53339715,-19.5664701],[-43.53351923,-19.56672568],[-43.53369853,-19.56714147],[-43.53380534,-19.56756683],[-43.53382822,-19.56778428],[-43.53386257,-19.56800551],[-43.53394648,-19.56816575],[-43.53411433,-19.56847853],[-43.53432796,-19.56895344],[-43.53460645,-19.56923195],[-43.53485821,-19.5696592],[-43.53507565,-19.56997201],[-43.5352931,-19.57024857],[-43.53531599,-19.57040689],[-43.53512143,-19.57055565],[-43.53499936,-19.57060333],[-43.53485058,-19.57069297],[-43.53466748,-19.57096764],[-43.53460264,-19.57142732],[-43.53466366,-19.57190226],[-43.53479337,-19.57223222],[-43.53510619,-19.57251069],[-43.53559064,-19.57307146],[-43.5361209,-19.57345485],[-43.53632688,-19.5736284],[-43.53657103,-19.57378863],[-43.53688384,-19.57404423],[-43.5370288,-19.5740938],[-43.53746369,-19.57473085],[-43.53774216,-19.57508562],[-43.53800538,-19.57548045],[-43.53844026,-19.57577226],[-43.53886369,-19.57597063],[-43.53934817,-19.57622812],[-43.53969912,-19.57642458],[-43.54006153,-19.57680606],[-43.54030186,-19.577075],[-43.54054598,-19.57739733],[-43.54069858,-19.57792758],[-43.54075582,-19.57875537],[-43.540752,-19.57921505],[-43.54072148,-19.57986165],[-43.54051167,-19.5804472],[-43.54046972,-19.58110143],[-43.54024464,-19.58215621],[-43.54005772,-19.58272078],[-43.53995854,-19.58306223],[-43.53971439,-19.58340742],[-43.53965337,-19.58348945],[-43.53963812,-19.58377364],[-43.53962666,-19.58394913],[-43.53956182,-19.58433822],[-43.5395122,-19.58462623],[-43.53946263,-19.58488754],[-43.53943595,-19.58522132],[-43.53938252,-19.58561425],[-43.53924519,-19.58608345],[-43.53922231,-19.58629135],[-43.53918417,-19.58657936],[-43.53918035,-19.58675103],[-43.53918035,-19.5869227],[-43.53918035,-19.58707148],[-43.53921467,-19.5873156],[-43.53926045,-19.58762841],[-43.53929479,-19.58793549],[-43.53929097,-19.58835128],[-43.53927572,-19.58874421],[-43.53926427,-19.58890254],[-43.53926427,-19.58911043],[-43.53933293,-19.58950336],[-43.53950078,-19.5898028],[-43.53987467,-19.59011752],[-43.54028662,-19.59030253],[-43.54085885,-19.59056004],[-43.54132042,-19.59068973],[-43.5418049,-19.59078891],[-43.54233894,-19.59086139],[-43.54286156,-19.59101399],[-43.54361308,-19.59130388],[-43.54407464,-19.59142596],[-43.54531064,-19.59163958],[-43.54596676,-19.59176165],[-43.54626048,-19.59181886],[-43.54676784,-19.59187227],[-43.54776351,-19.59202868],[-43.54821364,-19.59202868],[-43.54874769,-19.59203247],[-43.54910248,-19.59205727],[-43.54954116,-19.59198479],[-43.55006378,-19.59198479],[-43.55052537,-19.59204774],[-43.55093736,-19.59211831],[-43.55150576,-19.59226327],[-43.5520551,-19.59247499],[-43.55257388,-19.592763],[-43.55309268,-19.59334093],[-43.55374501,-19.59411913],[-43.55465291,-19.59474474],[-43.55541204,-19.59537416],[-43.55572867,-19.59543138],[-43.55649541,-19.59558778],[-43.55705237,-19.59598452],[-43.55735373,-19.59612184],[-43.55752158,-19.59627824],[-43.55771614,-19.59641367],[-43.55799463,-19.59671503],[-43.5582235,-19.59707361],[-43.5583761,-19.59751234],[-43.55874994,-19.59805779],[-43.55925731,-19.59838205],[-43.55982952,-19.59867198],[-43.56029108,-19.59879214],[-43.56079845,-19.59896953],[-43.5610426,-19.59907442],[-43.5611494,-19.59908397],[-43.5616377,-19.59922893],[-43.56227857,-19.59953219],[-43.56306822,-19.59951503],[-43.56369002,-19.59944825],[-43.56461318,-19.59926131],[-43.56524641,-19.59925181],[-43.56613525,-19.59925942],[-43.56697068,-19.5993834],[-43.5675696,-19.59937576],[-43.56804262,-19.59934337],[-43.56846605,-19.59930139],[-43.56878268,-19.59922128],[-43.56927097,-19.59913545],[-43.56975927,-19.59912591],[-43.57022084,-19.59910684],[-43.57052219,-19.59910877],[-43.57064427,-19.59911065],[-43.57083882,-19.59914306],[-43.57115545,-19.59916786],[-43.57147206,-19.59922127],[-43.57209002,-19.59953217],[-43.57253638,-19.59978013],[-43.57288733,-19.60006812],[-43.57320396,-19.60030084],[-43.5735778,-19.60060219],[-43.57396309,-19.6010428],[-43.57407371,-19.6011248],[-43.57429115,-19.60123163],[-43.57447046,-19.60138229],[-43.57459251,-19.60145095],[-43.57494348,-19.60172753],[-43.57509988,-19.60179811],[-43.57533257,-19.60183624],[-43.57563777,-19.60182481],[-43.57596583,-19.60171417],[-43.57640451,-19.6014872],[-43.57677073,-19.60140902],[-43.57709877,-19.60143379],[-43.57732769,-19.60156159],[-43.57759472,-19.60165505],[-43.57797238,-19.60161311],[-43.57830044,-19.60154629],[-43.57847972,-19.601697],[-43.57863996,-19.60184771],[-43.57878492,-19.60182671],[-43.5789909,-19.60182862],[-43.57919689,-19.60178473],[-43.57950209,-19.60158829],[-43.57977292,-19.60146431],[-43.58029553,-19.60134223],[-43.58082961,-19.60126402],[-43.5814743,-19.60136512],[-43.58179093,-19.60123543],[-43.58251189,-19.6010256],[-43.58325195,-19.60091307],[-43.58346939,-19.60088254],[-43.58386232,-19.60051632],[-43.58438494,-19.60043814],[-43.58466722,-19.60040952],[-43.58510213,-19.60037709],[-43.58577348,-19.60036756],[-43.58653643,-19.60074521],[-43.58739856,-19.60109425],[-43.58801654,-19.60123541],[-43.58882908,-19.60133648],[-43.58993537,-19.60153867],[-43.59061438,-19.6016264],[-43.59129723,-19.60150049],[-43.59188087,-19.6014948],[-43.59246453,-19.60146428],[-43.59286505,-19.60139943],[-43.59338769,-19.60147191],[-43.59399424,-19.60134984],[-43.59448252,-19.60115528],[-43.59486399,-19.60088252],[-43.59536372,-19.60047434],[-43.59582912,-19.59991359],[-43.59619914,-19.59918117],[-43.59634792,-19.59859368],[-43.59640133,-19.59812066],[-43.59641276,-19.59788988],[-43.59646615,-19.59743018],[-43.59651576,-19.59685608],[-43.59687053,-19.59681412],[-43.59733212,-19.59684844],[-43.5979501,-19.59700295],[-43.59848415,-19.59704299],[-43.59937299,-19.59699147],[-43.60065092,-19.59659858],[-43.60139479,-19.59646508],[-43.60189452,-19.596343],[-43.60257355,-19.59625718],[-43.60335175,-19.59644407],[-43.60404603,-19.5964498],[-43.60459156,-19.59643075],[-43.60504167,-19.59642118],[-43.60550326,-19.596425],[-43.60601445,-19.59650129],[-43.60653706,-19.59660432],[-43.60720464,-19.59679503],[-43.60772346,-19.59690183],[-43.60804007,-19.59677785],[-43.6084902,-19.5968141],[-43.6088564,-19.59681601],[-43.60908528,-19.5970487],[-43.60937523,-19.59724516],[-43.60982536,-19.59752935],[-43.61058831,-19.59802719],[-43.61138939,-19.5983533],[-43.61180139,-19.59839339],[-43.61240792,-19.59842962],[-43.61302591,-19.5985288],[-43.61327005,-19.59854026],[-43.61386515,-19.59846396],[-43.61457089,-19.59841054],[-43.61524226,-19.59815305],[-43.61566953,-19.59800236],[-43.61618069,-19.5977544],[-43.61710385,-19.59763425],[-43.61800414,-19.5977811],[-43.61873657,-19.59760181],[-43.61933166,-19.59744351],[-43.61995346,-19.59730807],[-43.62055999,-19.59709636],[-43.62109788,-19.59706392],[-43.62170441,-19.59706012],[-43.62233767,-19.5971326],[-43.62299,-19.59722797],[-43.6237949,-19.59733861],[-43.62472951,-19.59743586],[-43.62551914,-19.59745493],[-43.62599219,-19.59745302],[-43.62629736,-19.59743395],[-43.62653006,-19.59741297],[-43.62690389,-19.59741488],[-43.62724723,-19.5974187],[-43.62735403,-19.5974187],[-43.6277317,-19.59742249],[-43.62801399,-19.59717073],[-43.62831916,-19.59687508],[-43.62863579,-19.5965432],[-43.62904015,-19.59607208],[-43.62952081,-19.59545601],[-43.62988701,-19.59499824],[-43.63009681,-19.5942868],[-43.63026086,-19.59356008],[-43.63052026,-19.5929669],[-43.63080255,-19.59247099],[-43.63110772,-19.59191403],[-43.63169899,-19.5910996],[-43.63217586,-19.59008678],[-43.63246194,-19.58958324],[-43.63288918,-19.5890263],[-43.633305,-19.58851894],[-43.63397637,-19.58784754],[-43.63468592,-19.58728679],[-43.63518947,-19.58684427],[-43.63528484,-19.58674126],[-43.63583416,-19.58622628],[-43.63653226,-19.58578378],[-43.63734859,-19.58523446],[-43.63782543,-19.58498456],[-43.63847012,-19.58479576],[-43.63935896,-19.584729],[-43.64038131,-19.58465652],[-43.64151047,-19.58470038],[-43.64250611,-19.58485677],[-43.64342927,-19.5849903],[-43.64409685,-19.58500555],[-43.6444745,-19.58499794],[-43.64495898,-19.58494452],[-43.64540912,-19.58485297],[-43.64587453,-19.58475188],[-43.64615299,-19.58462789],[-43.64631321,-19.58446957],[-43.64664127,-19.58410337],[-43.64693883,-19.58368946],[-43.6476827,-19.58326985],[-43.64808324,-19.58290745],[-43.6486707,-19.58223032],[-43.64904074,-19.58169055],[-43.64933446,-19.58130335],[-43.64978461,-19.58095049],[-43.65027291,-19.58059763],[-43.65095574,-19.58033632],[-43.65172248,-19.58006547],[-43.65255029,-19.57990907],[-43.65324457,-19.57976602],[-43.65391595,-19.57967638],[-43.65417155,-19.57963251],[-43.65445002,-19.57982895],[-43.6548582,-19.58006167],[-43.65511378,-19.58034013],[-43.6555601,-19.58074449],[-43.65589962,-19.58102678],[-43.65631161,-19.58128426],[-43.65660154,-19.58140825],[-43.65685712,-19.58148263],[-43.6570631,-19.58153795],[-43.65728055,-19.5815532],[-43.65769636,-19.58154175],[-43.65808547,-19.58136438],[-43.65844024,-19.58118128],[-43.65898956,-19.58096383],[-43.65963425,-19.58085701],[-43.66029037,-19.58080359],[-43.66086258,-19.58077118],[-43.66125169,-19.58077309],[-43.66153018,-19.58083412],[-43.66166367,-19.58089326],[-43.66200318,-19.58099624],[-43.66211762,-19.58101533],[-43.66219774,-19.58074448],[-43.66225115,-19.58032105],[-43.66236558,-19.57939025],[-43.66249147,-19.57834312],[-43.66256777,-19.57792921],[-43.66262879,-19.57757253],[-43.66263261,-19.57692976],[-43.66264022,-19.5757205],[-43.66265549,-19.57514638],[-43.66269745,-19.57443303],[-43.66272415,-19.57407635],[-43.6626822,-19.57318181],[-43.66264021,-19.57203738],[-43.66256012,-19.57119622],[-43.66246475,-19.57045046],[-43.6623732,-19.56988587],[-43.66237319,-19.56944719],[-43.66237704,-19.5691935],[-43.66234267,-19.56894174],[-43.66225873,-19.56860986],[-43.66216336,-19.56834282],[-43.66202983,-19.56785835],[-43.66192685,-19.56729378],[-43.66172086,-19.56663763],[-43.66153394,-19.56591285],[-43.66152248,-19.56556572],[-43.66143857,-19.56526625],[-43.6613432,-19.5649897],[-43.66119824,-19.56455099],[-43.66104564,-19.56420578],[-43.66090068,-19.56390631],[-43.66072139,-19.5635134],[-43.66063746,-19.5633856],[-43.66040858,-19.56300413],[-43.66082058,-19.56281339],[-43.66125926,-19.56255018],[-43.66190777,-19.5621172],[-43.66254102,-19.56160222],[-43.66295681,-19.56119404],[-43.66327726,-19.56069813],[-43.66367016,-19.55990657],[-43.66389524,-19.55902347],[-43.66397154,-19.55803353],[-43.66423855,-19.55670411],[-43.66450558,-19.55616243],[-43.66479168,-19.55562265],[-43.66509686,-19.5550161],[-43.66544019,-19.55440766],[-43.66578352,-19.55402237],[-43.66597805,-19.55379347],[-43.66630996,-19.55343871],[-43.66643582,-19.55297903],[-43.66652355,-19.55217031],[-43.66656553,-19.55149321],[-43.66656935,-19.55087523],[-43.66656935,-19.55026486],[-43.6666113,-19.54970029],[-43.66678679,-19.54883816],[-43.66695843,-19.54851964],[-43.66704618,-19.54800082],[-43.66728269,-19.54711772],[-43.66742002,-19.54666567],[-43.66772519,-19.5460496],[-43.66835081,-19.5451684],[-43.66876662,-19.54481554],[-43.66936551,-19.54430054],[-43.66970885,-19.54402589],[-43.67002548,-19.54368064],[-43.67019714,-19.54351091],[-43.67024669,-19.54332588],[-43.67067778,-19.54242179],[-43.67073882,-19.54197357],[-43.67103636,-19.54120298],[-43.67142928,-19.54025312],[-43.67154372,-19.53966757],[-43.67165815,-19.5388722],[-43.67172302,-19.53809209],[-43.67190612,-19.53760952],[-43.67215406,-19.53703732],[-43.67238678,-19.53645177],[-43.67261183,-19.53582999],[-43.67287123,-19.53508227],[-43.6732031,-19.53452531],[-43.67361892,-19.5340752],[-43.67419113,-19.53374521],[-43.67469086,-19.5333828],[-43.67514481,-19.53305283],[-43.67543473,-19.53278771],[-43.67570556,-19.5325512],[-43.675923,-19.53236619],[-43.67631593,-19.53179589],[-43.67663635,-19.53144112],[-43.67689196,-19.53119888],[-43.67706362,-19.53102912],[-43.67735352,-19.53075638],[-43.67745271,-19.5305809],[-43.67759003,-19.53039971],[-43.67778459,-19.53017081],[-43.67792955,-19.52997435],[-43.67789523,-19.52954901],[-43.67770449,-19.52890623],[-43.67759003,-19.52794682],[-43.67759384,-19.52724684],[-43.67765871,-19.52656972],[-43.67791811,-19.52579914],[-43.67850938,-19.52484546],[-43.67879167,-19.52442393],[-43.67902436,-19.52397762],[-43.67923419,-19.52312503],[-43.67923798,-19.52259669],[-43.67906252,-19.52174599],[-43.67892898,-19.52121768],[-43.67867722,-19.5205234],[-43.67835675,-19.51973947],[-43.67827286,-19.51939232],[-43.67803253,-19.51894219],[-43.67773117,-19.51822693],[-43.67755186,-19.51762802],[-43.67733824,-19.51700431],[-43.67721998,-19.51655608],[-43.67715895,-19.51627953],[-43.67707502,-19.51603538],[-43.67697962,-19.51566916],[-43.67693769,-19.51499015],[-43.67694915,-19.51475939],[-43.67701399,-19.51450758],[-43.67704831,-19.5143321],[-43.67706358,-19.51417379],[-43.67709026,-19.51395253],[-43.67696821,-19.51395253],[-43.67678509,-19.51400022],[-43.6765791,-19.51404411],[-43.67611369,-19.51421193],[-43.6755186,-19.51445226],[-43.67517529,-19.51462966],[-43.67498073,-19.51480512],[-43.67473658,-19.51505502],[-43.6745306,-19.51524764],[-43.67417583,-19.51543074],[-43.6739355,-19.5150855],[-43.6735731,-19.51483947],[-43.67332895,-19.51458389],[-43.6731115,-19.51436647],[-43.67288263,-19.51416999],[-43.67230278,-19.51385338],[-43.67219216,-19.51380758],[-43.6715627,-19.51350623],[-43.67092949,-19.51351005],[-43.67030769,-19.51375802],[-43.669663,-19.51401933],[-43.66921286,-19.51425584],[-43.66871313,-19.51457817],[-43.66845753,-19.51477082],[-43.66816381,-19.51494058],[-43.66788532,-19.51505504],[-43.66761831,-19.51508936],[-43.66726354,-19.51509506],[-43.66714147,-19.51510843],[-43.66692402,-19.51499017],[-43.66675618,-19.51483948],[-43.66640523,-19.51458391],[-43.66610385,-19.51437792],[-43.66573765,-19.5141452],[-43.66545915,-19.51389917],[-43.66520737,-19.51363405],[-43.66496706,-19.51334413],[-43.66461611,-19.51289399],[-43.66454363,-19.51260407],[-43.66446351,-19.51220162],[-43.66441392,-19.5119117],[-43.66441774,-19.51147872],[-43.66466949,-19.51036101],[-43.66482973,-19.50989181],[-43.6652112,-19.50906782],[-43.66541719,-19.50866346],[-43.66556596,-19.50818089],[-43.66561938,-19.5078967],[-43.6656804,-19.50780133],[-43.66579102,-19.50743704],[-43.66591309,-19.50696211],[-43.66611146,-19.50640515],[-43.66626024,-19.50622014],[-43.66634416,-19.50597602],[-43.6663594,-19.50580433],[-43.66651581,-19.50264],[-43.66564224,-19.49761794],[-43.66577955,-19.49256916],[-43.64996362,-19.4718324],[-43.64986441,-19.47180951],[-43.64974617,-19.47139369],[-43.64956307,-19.47028553],[-43.6495745,-19.4690877],[-43.64978051,-19.46821223],[-43.65000556,-19.46742831],[-43.65005515,-19.46719941],[-43.65013527,-19.46664818],[-43.65002083,-19.46565255],[-43.64997506,-19.46556291],[-43.64973473,-19.46514521],[-43.64945244,-19.46433456],[-43.64897559,-19.46366319],[-43.64839577,-19.46306237],[-43.64791509,-19.46270951],[-43.64755268,-19.46245391],[-43.64681262,-19.4613877],[-43.64640444,-19.46071631],[-43.6459276,-19.46008881],[-43.64556901,-19.45937166],[-43.64518753,-19.45872313],[-43.6447794,-19.45821386],[-43.64454286,-19.45779616],[-43.64437502,-19.45746999],[-43.64418807,-19.45689587],[-43.64406982,-19.45636182],[-43.64400115,-19.4559956],[-43.64400879,-19.45511822],[-43.64413468,-19.45463565],[-43.64438262,-19.45405963],[-43.64465347,-19.45383075],[-43.64475648,-19.45330432],[-43.6450006,-19.45291142],[-43.64537064,-19.45234112],[-43.64572159,-19.4515133],[-43.64587418,-19.45063783],[-43.64596191,-19.44902612],[-43.64597336,-19.44803237],[-43.64576356,-19.44699478],[-43.64569105,-19.44683266],[-43.64564909,-19.44623184],[-43.64558043,-19.44572447],[-43.64554229,-19.44496535],[-43.64550794,-19.44353292],[-43.64559188,-19.44224545],[-43.64572156,-19.44148442],[-43.64580168,-19.44058608],[-43.64583218,-19.44014736],[-43.64584363,-19.43871875],[-43.6457063,-19.43819041],[-43.6453706,-19.43758577],[-43.64484798,-19.43654436],[-43.6445161,-19.43561929],[-43.64449321,-19.43545717],[-43.64463054,-19.43407625],[-43.64468774,-19.43287842],[-43.64464578,-19.43230048],[-43.64448175,-19.43165198],[-43.64437111,-19.43080321],[-43.64432915,-19.42992583],[-43.64431771,-19.42858877],[-43.64432537,-19.42773428],[-43.64445885,-19.42685878],[-43.64456185,-19.42625987],[-43.64463815,-19.42584981],[-43.64486702,-19.42476641],[-43.64509208,-19.42407595],[-43.64529424,-19.42311084],[-43.64542016,-19.42262445],[-43.64559944,-19.42172609],[-43.64591988,-19.42106043],[-43.6467782,-19.42028603],[-43.64748775,-19.41957649],[-43.64783486,-19.41909583],[-43.64859019,-19.41868574],[-43.6489297,-19.41850264],[-43.64922342,-19.41825277],[-43.64990245,-19.41821272],[-43.65080654,-19.41789798],[-43.65161144,-19.41746693],[-43.65295044,-19.41690236],[-43.65356076,-19.41646938],[-43.65407576,-19.41584949],[-43.65432371,-19.41530017],[-43.65448012,-19.41437892],[-43.65458692,-19.41338708],[-43.65461744,-19.41253641],[-43.65482343,-19.41140915],[-43.65514769,-19.41028192],[-43.65576567,-19.40917946],[-43.65628446,-19.40816664],[-43.65709698,-19.40713857],[-43.65773024,-19.40686773],[-43.65863814,-19.40597508],[-43.65946975,-19.405174],[-43.65998093,-19.4047887],[-43.66105669,-19.4042184],[-43.66263978,-19.40338107],[-43.66354389,-19.40290422],[-43.66444416,-19.40233201],[-43.6651804,-19.40183229],[-43.66630575,-19.40076035],[-43.66719077,-19.39970557],[-43.66801855,-19.39916007],[-43.66850683,-19.3989331],[-43.66914008,-19.39863554],[-43.66999458,-19.39822927],[-43.67089485,-19.39786687],[-43.67177223,-19.39757505],[-43.67297006,-19.39654889],[-43.67382076,-19.39616169],[-43.67450359,-19.39570583],[-43.67557934,-19.39483799],[-43.67670848,-19.39364777],[-43.6776698,-19.3922726],[-43.67879133,-19.39145431],[-43.68001204,-19.39067613],[-43.6805728,-19.39026984],[-43.6810878,-19.38999328],[-43.68154934,-19.389793],[-43.68193848,-19.38965567],[-43.68232759,-19.38947446],[-43.68279297,-19.38922461],[-43.68298753,-19.38894993],[-43.68316301,-19.38825947],[-43.6832889,-19.38775592],[-43.68339188,-19.38750225],[-43.68351396,-19.38745457],[-43.68417008,-19.38730008],[-43.68455919,-19.38718562],[-43.68523822,-19.38714557],[-43.68596685,-19.38703875],[-43.68655049,-19.38692431],[-43.68708072,-19.3870235],[-43.68737444,-19.38688615],[-43.68752324,-19.38649897],[-43.68777118,-19.38585428],[-43.687878,-19.38514093],[-43.68790471,-19.38474803],[-43.68790852,-19.38426546],[-43.68791232,-19.38393929],[-43.68777117,-19.38335374],[-43.68766055,-19.38320687],[-43.68719896,-19.3825965],[-43.68681372,-19.38220169],[-43.6864284,-19.38187747],[-43.68597445,-19.38125183],[-43.68556626,-19.38064721],[-43.68537934,-19.38005021],[-43.68492539,-19.3793502],[-43.6844638,-19.37911751],[-43.6840518,-19.37904694],[-43.6837619,-19.37902214],[-43.68320494,-19.37887718],[-43.68274717,-19.37855292],[-43.68209484,-19.37834121],[-43.68168287,-19.37838319],[-43.68124798,-19.37807608],[-43.68066813,-19.37779762],[-43.68011502,-19.37751724],[-43.67972591,-19.37744285],[-43.67938639,-19.37744094],[-43.67897439,-19.37743713],[-43.67846323,-19.37743331],[-43.67788339,-19.37742952],[-43.67739891,-19.37744859],[-43.67693734,-19.37744475],[-43.67620871,-19.37729981],[-43.67577765,-19.37706521],[-43.67553734,-19.37685731],[-43.67539238,-19.3767867],[-43.6749346,-19.37627747],[-43.67469809,-19.37576629],[-43.67450735,-19.37534856],[-43.67424795,-19.37456467],[-43.67405721,-19.37408019],[-43.67387027,-19.37356901],[-43.67365665,-19.37289955],[-43.67346973,-19.37239218],[-43.6733019,-19.37197446],[-43.67253511,-19.37116574],[-43.67212695,-19.37076902],[-43.67169207,-19.37041808],[-43.67137926,-19.3701167],[-43.67108933,-19.36986303],[-43.6708986,-19.36967611],[-43.6706087,-19.36946631],[-43.6705133,-19.36937096],[-43.67031875,-19.36939192],[-43.67010133,-19.36939001],[-43.66971222,-19.36945867],[-43.66949478,-19.36952543],[-43.66927352,-19.36956927],[-43.668934,-19.36952161],[-43.66872038,-19.36910391],[-43.66848007,-19.36878155],[-43.66799941,-19.36840772],[-43.66773619,-19.3680358],[-43.66745008,-19.36763905],[-43.66730512,-19.36740827],[-43.66714109,-19.36687802],[-43.6671487,-19.36618755],[-43.66725171,-19.36563251],[-43.6673776,-19.36510416],[-43.66755303,-19.36462353],[-43.66765224,-19.36432595],[-43.66760647,-19.36406848],[-43.66761029,-19.36370226],[-43.6676141,-19.36321781],[-43.66751873,-19.36300986],[-43.66720592,-19.36288972],[-43.66669474,-19.36286302],[-43.66633236,-19.36290691],[-43.66608821,-19.36304423],[-43.66579447,-19.36315485],[-43.66550455,-19.36324831],[-43.66513835,-19.3632674],[-43.66489802,-19.3632655],[-43.66463098,-19.36293932],[-43.66439447,-19.36252162],[-43.66427621,-19.3621554],[-43.66423044,-19.36180634],[-43.664116,-19.36132191],[-43.6640702,-19.36078973],[-43.66402824,-19.36037775],[-43.66390998,-19.3598208],[-43.66353233,-19.35896439],[-43.66334159,-19.3583445],[-43.66310508,-19.3579268],[-43.6629372,-19.35769409],[-43.6628457,-19.35734696],[-43.66248325,-19.35686057],[-43.66236501,-19.35674232],[-43.66229253,-19.3566069],[-43.66190724,-19.35621018],[-43.66164402,-19.35579246],[-43.66138462,-19.35532896],[-43.66121677,-19.35500281],[-43.66112143,-19.3546595],[-43.66105656,-19.35419791],[-43.66101078,-19.35362],[-43.66101839,-19.35311261],[-43.66102221,-19.35265296],[-43.66105273,-19.35209791],[-43.66103366,-19.35147802],[-43.660965,-19.35087719],[-43.66102221,-19.3502306],[-43.66107564,-19.34974805],[-43.66115189,-19.34931126],[-43.6613274,-19.34873905],[-43.66140367,-19.34839001],[-43.66150286,-19.34804286],[-43.66160205,-19.34758318],[-43.66167834,-19.34726276],[-43.66168216,-19.34686983],[-43.66163639,-19.34668482],[-43.66144565,-19.34638538],[-43.66099169,-19.34571401],[-43.66077425,-19.34541261],[-43.66036989,-19.34487665],[-43.65986634,-19.34430063],[-43.65948105,-19.34378756],[-43.65895461,-19.34297882],[-43.6586685,-19.34256112],[-43.65814589,-19.34170281],[-43.65785978,-19.34101044],[-43.65750119,-19.34029327],[-43.65707394,-19.33950362],[-43.65671536,-19.3389238],[-43.65638347,-19.338302],[-43.65619274,-19.33797583],[-43.65590663,-19.33744369],[-43.65564723,-19.33675132],[-43.65543361,-19.33626111],[-43.65509791,-19.33564122],[-43.65493387,-19.33531316],[-43.65474314,-19.33485157],[-43.65457529,-19.3345979],[-43.65440744,-19.33432135],[-43.65431205,-19.3341802],[-43.65404885,-19.33371671],[-43.65395348,-19.33359845],[-43.65385809,-19.33344015],[-43.65378563,-19.33302815],[-43.6530455,-19.30373874],[-43.65040568,-19.28943928],[-43.65062309,-19.28899869],[-43.65108468,-19.28817088],[-43.65144709,-19.28749948],[-43.65190867,-19.28664499],[-43.65224817,-19.28614144],[-43.65270594,-19.28549487],[-43.65309505,-19.28526215],[-43.65340786,-19.28519158],[-43.65428144,-19.28500466],[-43.6551321,-19.28479867],[-43.65571576,-19.28474908],[-43.65670758,-19.28463464],[-43.65758117,-19.28454118],[-43.65835937,-19.28437521],[-43.65947326,-19.28416541],[-43.66041933,-19.28386596],[-43.66136537,-19.28347112],[-43.66192235,-19.28314879],[-43.66284551,-19.28261471],[-43.66374194,-19.28168965],[-43.66422641,-19.28093052],[-43.66451634,-19.28042125],[-43.66487874,-19.27975558],[-43.6653136,-19.27917576],[-43.6657523,-19.27866839],[-43.66635883,-19.27804468],[-43.66686619,-19.27776812],[-43.66737356,-19.27732942],[-43.66788472,-19.27702997],[-43.66820134,-19.27679919],[-43.66868582,-19.27654359],[-43.66924278,-19.27621934],[-43.6698722,-19.27591987],[-43.67062371,-19.27547928],[-43.67159264,-19.27485366],[-43.67217628,-19.27448744],[-43.67268365,-19.2741384],[-43.67336268,-19.27374547],[-43.67391961,-19.27339643],[-43.67455287,-19.2730531],[-43.67503732,-19.2728452],[-43.67578884,-19.2726106],[-43.67685314,-19.27205364],[-43.67794794,-19.27173321],[-43.67874525,-19.27156727],[-43.67959593,-19.27122011],[-43.6804924,-19.27077952],[-43.68095397,-19.27052583],[-43.68148801,-19.27001849],[-43.68175125,-19.26967324],[-43.68211748,-19.26918688],[-43.68240737,-19.26863374],[-43.68272018,-19.26773156],[-43.68303299,-19.26683509],[-43.68317795,-19.26635252],[-43.68337251,-19.26586616],[-43.68354035,-19.26540648],[-43.68375779,-19.26496591],[-43.68395235,-19.2645291],[-43.68421936,-19.26381193],[-43.68431473,-19.26335225],[-43.68453217,-19.26264081],[-43.68491746,-19.26187595],[-43.68523408,-19.26152882],[-43.68566897,-19.26125222],[-43.68603517,-19.26111492],[-43.68673709,-19.26095279],[-43.68756106,-19.26092799],[-43.68846133,-19.26080783],[-43.6893578,-19.26064571],[-43.69032674,-19.26057704],[-43.6909104,-19.26048167],[-43.6916123,-19.26027375],[-43.69221885,-19.26011163],[-43.69287497,-19.25997048],[-43.69377145,-19.25973779],[-43.69471749,-19.25934295],[-43.69549189,-19.25892907],[-43.69612131,-19.25874406],[-43.69687664,-19.25844077],[-43.69772352,-19.2581623],[-43.69840251,-19.25786094],[-43.6992265,-19.25799636],[-43.69983303,-19.25792388],[-43.70041672,-19.25781135],[-43.70104613,-19.2576492],[-43.7019197,-19.25718572],[-43.70286574,-19.25663067],[-43.70337311,-19.25582195],[-43.7037851,-19.25549962],[-43.704487,-19.25503421],[-43.70509355,-19.25466419],[-43.70582215,-19.2542274],[-43.70611207,-19.2539928],[-43.70654696,-19.25367235],[-43.70671862,-19.25353312],[-43.70703144,-19.2533729],[-43.70724885,-19.25318789],[-43.70744341,-19.25281976],[-43.70775619,-19.25231049],[-43.70802325,-19.25145411],[-43.70831317,-19.25071976],[-43.70845813,-19.25025628],[-43.70840854,-19.2499339],[-43.70824069,-19.24965737],[-43.70823687,-19.2494952],[-43.70821398,-19.24935981],[-43.70821398,-19.24898979],[-43.70821398,-19.24862357],[-43.70823687,-19.24804564],[-43.70840471,-19.24762985],[-43.70850008,-19.24737806],[-43.70847719,-19.24705382],[-43.70833223,-19.24675435],[-43.70854585,-19.24585599],[-43.70883959,-19.24525708],[-43.7091524,-19.24454182],[-43.70951478,-19.24345463],[-43.70975511,-19.2427203],[-43.70985047,-19.24216525],[-43.70992295,-19.24142902],[-43.70982376,-19.24046195],[-43.70948427,-19.24007098],[-43.70904557,-19.23965707],[-43.70870605,-19.23937861],[-43.70831696,-19.23929085],[-43.70773712,-19.23914971],[-43.70700851,-19.2390143],[-43.70642485,-19.23890177],[-43.70601285,-19.2388312],[-43.70560087,-19.23869767],[-43.70523465,-19.23858133],[-43.70472729,-19.23849169],[-43.70412076,-19.23837535],[-43.70346461,-19.23817125],[-43.70285808,-19.23785085],[-43.70254145,-19.23757236],[-43.7022973,-19.2370917],[-43.70222482,-19.23669877],[-43.70222482,-19.23617043],[-43.70224773,-19.23550095],[-43.70248803,-19.23503747],[-43.70263299,-19.23480857],[-43.70297251,-19.23436798],[-43.70311747,-19.23381866],[-43.70323954,-19.23303283],[-43.7033082,-19.23181021],[-43.70345316,-19.23051892],[-43.70349893,-19.22952901],[-43.70349893,-19.22869741],[-43.7035447,-19.22805654],[-43.70356759,-19.22731648],[-43.70361336,-19.22643908],[-43.70368584,-19.22563609],[-43.70375832,-19.22471484],[-43.70380409,-19.2236982],[-43.70380409,-19.22342356],[-43.70380027,-19.22242983],[-43.70367819,-19.22164591],[-43.70358282,-19.22093253],[-43.70348363,-19.22033553],[-43.70316703,-19.2193666],[-43.70309073,-19.21860748],[-43.70309072,-19.21784835],[-43.7030869,-19.21671728],[-43.7030869,-19.21630339],[-43.70320897,-19.21572546],[-43.70335393,-19.215035],[-43.7034493,-19.21466496],[-43.70359424,-19.21450283],[-43.70373922,-19.21411184],[-43.70393375,-19.21365216],[-43.70397955,-19.21323634],[-43.70388418,-19.21293881],[-43.7033234,-19.212708],[-43.70254903,-19.21277858],[-43.70179751,-19.21266605],[-43.70092395,-19.21269085],[-43.70024491,-19.21278624],[-43.69973375,-19.21287775],[-43.69881439,-19.21287968],[-43.69752883,-19.21258024],[-43.69682311,-19.21254017],[-43.6964836,-19.21251537],[-43.69604871,-19.21244862],[-43.69561003,-19.21224264],[-43.69505307,-19.21180394],[-43.69454188,-19.21141294],[-43.69386287,-19.21088842],[-43.69342417,-19.21063093],[-43.69284053,-19.21031049],[-43.69262308,-19.21021894],[-43.69230648,-19.21003582],[-43.69206612,-19.20992138],[-43.69172661,-19.20982983],[-43.69133754,-19.20962382],[-43.69114297,-19.20953039],[-43.69073097,-19.20939686],[-43.69031899,-19.2093034],[-43.6898307,-19.2091203],[-43.68910589,-19.20875408],[-43.68842688,-19.20880177],[-43.68777073,-19.20868924],[-43.6872138,-19.20840887],[-43.68696965,-19.20829443],[-43.68655765,-19.20806554],[-43.68629061,-19.20786146],[-43.68592441,-19.20770123],[-43.68560778,-19.20749524],[-43.68541705,-19.2073808],[-43.68510042,-19.2071977],[-43.68463885,-19.20694019],[-43.6840323,-19.20666557],[-43.68369278,-19.20666746],[-43.68335329,-19.20666937],[-43.6828421,-19.20671514],[-43.68252929,-19.20687535],[-43.68218978,-19.20697263],[-43.68163284,-19.20701841],[-43.68117125,-19.20708707],[-43.68083173,-19.20715764],[-43.68044265,-19.20720533],[-43.68017561,-19.20723013],[-43.67959195,-19.20731977],[-43.67937453,-19.20734647],[-43.67908079,-19.20728545],[-43.70475386,-19.18420062],[-43.68004201,-19.16860992],[-43.67989705,-19.16823991],[-43.67984745,-19.16773254],[-43.67974826,-19.16752465],[-43.67974826,-19.16692764],[-43.67987034,-19.16651374],[-43.67989322,-19.16589003],[-43.67986651,-19.16517668],[-43.67981692,-19.16448431],[-43.67967193,-19.16353826],[-43.67930573,-19.16238812],[-43.67884416,-19.16114834],[-43.67864578,-19.16017941],[-43.67852371,-19.15923334],[-43.67845122,-19.15840174],[-43.67847411,-19.1576655],[-43.67869155,-19.15667368],[-43.67893188,-19.15568566],[-43.67938965,-19.15457749],[-43.67977494,-19.15344642],[-43.68013734,-19.15264152],[-43.68045394,-19.15173934],[-43.68086212,-19.15058538],[-43.68132371,-19.14980336],[-43.68163651,-19.14906522],[-43.68223922,-19.14763661],[-43.68274658,-19.1467592],[-43.68325395,-19.14597148],[-43.68362015,-19.14539736],[-43.68402832,-19.14474883],[-43.68422288,-19.14443032],[-43.6845395,-19.14389816],[-43.68482943,-19.14336793],[-43.68531008,-19.14258019],[-43.68591661,-19.14154066],[-43.68622942,-19.14101043],[-43.68639727,-19.14057364],[-43.68678638,-19.13976683],[-43.68712207,-19.13902868],[-43.68738906,-19.13859189],[-43.68743868,-19.13835729],[-43.68787356,-19.13723194],[-43.688091,-19.13676846],[-43.68825885,-19.13616764],[-43.68840381,-19.13524828],[-43.68852206,-19.13418589],[-43.6887395,-19.13317116],[-43.68919727,-19.13215837],[-43.68970461,-19.13109595],[-43.69018908,-19.13019568],[-43.69030734,-19.12971312],[-43.69042944,-19.12943465],[-43.69069645,-19.12899783],[-43.69122668,-19.12858206],[-43.69181034,-19.12802511],[-43.69248555,-19.12737851],[-43.69309208,-19.12673382],[-43.69347737,-19.12611201],[-43.69403433,-19.12528041],[-43.69439671,-19.12451937],[-43.69473622,-19.12368586],[-43.69490407,-19.12292864],[-43.69504903,-19.12214283],[-43.69519017,-19.12108231],[-43.69538472,-19.12043762],[-43.69555257,-19.11979295],[-43.69562505,-19.11928368],[-43.69572041,-19.11859321],[-43.6957433,-19.11810874],[-43.69583867,-19.1175308],[-43.69598363,-19.11649321],[-43.69610188,-19.11580277],[-43.69622395,-19.11525343],[-43.69644139,-19.11472129],[-43.69685337,-19.11393352],[-43.69723866,-19.11331365],[-43.69747898,-19.11287686],[-43.69794057,-19.11225124],[-43.69815801,-19.11178774],[-43.69873781,-19.11072917],[-43.69912313,-19.11026758],[-43.69994714,-19.10934251],[-43.70079397,-19.10841745],[-43.70142341,-19.10760873],[-43.7018583,-19.10721962],[-43.70280434,-19.10666648],[-43.70355201,-19.106224],[-43.70408608,-19.10557738],[-43.70454765,-19.10515965],[-43.70502833,-19.1046752],[-43.70577982,-19.10386648],[-43.70640926,-19.10308062],[-43.70730186,-19.10174547],[-43.70793132,-19.10086809],[-43.70841578,-19.10035693],[-43.70875529,-19.10010705],[-43.70921306,-19.09955012],[-43.70955258,-19.09924874],[-43.70969754,-19.09918199],[-43.70991498,-19.0990218],[-43.71015911,-19.09883292],[-43.71044901,-19.09851059],[-43.71071606,-19.09832749],[-43.71105176,-19.09802611],[-43.71160872,-19.09747111],[-43.71178039,-19.09712391],[-43.71175366,-19.09666237],[-43.71131497,-19.0953997],[-43.71129208,-19.09516889],[-43.7111433,-19.09466155],[-43.71107082,-19.09426862],[-43.71099834,-19.09364873],[-43.71063214,-19.09261114],[-43.71048336,-19.09150868],[-43.71019343,-19.09042147],[-43.70977761,-19.08904055],[-43.70953348,-19.08818987],[-43.70933893,-19.08761385],[-43.70916726,-19.0870836],[-43.70902229,-19.08653239],[-43.70877814,-19.08556344],[-43.70867893,-19.08494355],[-43.70855688,-19.08413483],[-43.70857979,-19.08332993],[-43.70853019,-19.08261658],[-43.7084806,-19.08210922],[-43.70838141,-19.08135009],[-43.70830893,-19.08081602],[-43.70823645,-19.08040596],[-43.7079923,-19.07998823],[-43.70787022,-19.07973838],[-43.70767569,-19.07934355],[-43.7075765,-19.07927489],[-43.70755361,-19.07819531],[-43.70735906,-19.07782336],[-43.70701572,-19.07718059],[-43.70674868,-19.07623836],[-43.7066762,-19.07531521],[-43.7066724,-19.07414218],[-43.70671817,-19.07282609],[-43.70686313,-19.07137269],[-43.70707675,-19.07022257],[-43.7072713,-19.06952829],[-43.70763368,-19.06876725],[-43.70813723,-19.06754653],[-43.70847674,-19.06625716],[-43.70861786,-19.0647122],[-43.70900317,-19.06330648],[-43.7099225,-19.06224215],[-43.71064731,-19.06115688],[-43.71093723,-19.06048548],[-43.7110326,-19.06021081],[-43.7110326,-19.0596329],[-43.71105548,-19.05887377],[-43.71117756,-19.05834161],[-43.71117374,-19.05783616],[-43.71107837,-19.05735168],[-43.7109067,-19.05691682],[-43.71073503,-19.05643234],[-43.71054047,-19.05594787],[-43.71010561,-19.05537566],[-43.70991105,-19.05491409],[-43.70952194,-19.05433616],[-43.70896119,-19.05355606],[-43.70825927,-19.05289039],[-43.70772522,-19.05263861],[-43.70724071,-19.05240974],[-43.70675628,-19.0522705],[-43.70631756,-19.0522495],[-43.70578735,-19.05224951],[-43.70537533,-19.0522743],[-43.70479166,-19.05245934],[-43.70421184,-19.05275881],[-43.70370448,-19.05310782],[-43.70314752,-19.0535923],[-43.70271266,-19.05414926],[-43.70213282,-19.05495416],[-43.70157586,-19.05562365],[-43.70125925,-19.05608524],[-43.70104563,-19.05677949],[-43.70095026,-19.05749287],[-43.70087778,-19.05802119],[-43.70087779,-19.05827488],[-43.70085488,-19.05869065],[-43.70082819,-19.05889668]]]]},"geometry_name":"the_geom","properties":{"ogc_fid":37,"nomeuc":"ÁREA DE PROTEÇÃO AMBIENTAL MORRO DA PEDREIRA","cnuc":"0000.00.0027","criacaoano":"1990","areahaalb":131769.90569444204,"perimm":216243.8825206874,"criacaoato":"DEC  98.891 de 26/01/1990","esferaadm":"Federal","siglacateg":"APA","grupouc":"US","ufabrang":"MG","biomaibge":"CERRADO","biomacrl":"CERRADO e MATA ATLÂNTICA","gregional":"GR4","fusoabrang":"23S","abrev":"APA Morro da Pedreira","escalauc":"1:100.000","demarcacao":"Não se aplica"},"bbox":[-43.71178039,-19.60184771,-43.36966848,-19.0522495]}],"totalFeatures":1,"numberMatched":1,"numberReturned":1,"timeStamp":"2026-03-26T02:14:37.885Z","crs":{"type":"name","properties":{"name":"urn:ogc:def:crs:EPSG::4674"}},"bbox":[-43.71178039,-19.60184771,-43.36966848,-19.0522495]}