{"type":"FeatureCollection","features":[{"type":"Feature","id":"limiteucsfederais_a.146","geometry":{"type":"MultiPolygon","coordinates":[[[[-43.49908278,-19.22027497],[-43.49599667,-19.22009569],[-43.49497815,-19.22062401],[-43.49463863,-19.22062211],[-43.49437542,-19.22075945],[-43.49398631,-19.22085673],[-43.4933836,-19.22092349],[-43.49280375,-19.22101886],[-43.49229638,-19.22122675],[-43.49176234,-19.22141179],[-43.49137705,-19.22166546],[-43.49067894,-19.22196681],[-43.49038902,-19.22208316],[-43.48999991,-19.22219569],[-43.48971001,-19.22226628],[-43.48917976,-19.22247418],[-43.48869528,-19.22252375],[-43.48811544,-19.22280033],[-43.48751273,-19.2231246],[-43.48683751,-19.22363003],[-43.48630726,-19.22402296],[-43.4858724,-19.22441207],[-43.48543752,-19.22476111],[-43.48507511,-19.22503767],[-43.48466694,-19.22547255],[-43.48459446,-19.22575293],[-43.48461734,-19.22616302],[-43.48471653,-19.22660172],[-43.48503316,-19.22703469],[-43.48551762,-19.22742759],[-43.4855901,-19.22765838],[-43.4855901,-19.22793305],[-43.48568931,-19.22843659],[-43.48607458,-19.2288047],[-43.48646369,-19.22916901],[-43.48651329,-19.22935593],[-43.48662009,-19.2298385],[-43.48651329,-19.22997391],[-43.48663536,-19.23050416],[-43.48663536,-19.23089136],[-43.48661248,-19.2312404],[-43.48661248,-19.23158374],[-43.48661248,-19.23192705],[-43.48656668,-19.23206628],[-43.48656668,-19.23240961],[-43.48654379,-19.23282543],[-43.4864942,-19.23312299],[-43.48637595,-19.23351398],[-43.48635306,-19.23383441],[-43.48635306,-19.23420635],[-43.48635306,-19.23477856],[-43.48635688,-19.23500935],[-43.4862844,-19.23535268],[-43.48630729,-19.23611178],[-43.48635689,-19.23655051],[-43.48640648,-19.23700634],[-43.48594871,-19.23765294],[-43.48570838,-19.23788182],[-43.48551764,-19.23802107],[-43.48488823,-19.23843496],[-43.48454871,-19.23871347],[-43.48394598,-19.23924559],[-43.48365608,-19.23949546],[-43.48339286,-19.23968429],[-43.48254598,-19.24005051],[-43.48218358,-19.24030609],[-43.48155796,-19.24083444],[-43.48107353,-19.24120446],[-43.48081029,-19.24145624],[-43.48071108,-19.24182433],[-43.48015796,-19.24224016],[-43.47986804,-19.24267693],[-43.47979556,-19.24297831],[-43.47950566,-19.24325105],[-43.47924247,-19.24366878],[-43.47909749,-19.24394343],[-43.4790746,-19.24410557],[-43.47861683,-19.24477124],[-43.47842227,-19.24490856],[-43.47822772,-19.2450478],[-43.47820483,-19.24539495],[-43.4780141,-19.24596713],[-43.47803699,-19.24624371],[-43.47794162,-19.24642872],[-43.47784625,-19.24668048],[-43.47770129,-19.2469132],[-43.47755633,-19.2471211],[-43.477316,-19.24723553],[-43.47724352,-19.24764562],[-43.47709858,-19.24788022],[-43.47656833,-19.24834181],[-43.476328,-19.24850202],[-43.47608385,-19.24866224],[-43.47586641,-19.24877861],[-43.4755536,-19.24898841],[-43.47533616,-19.2491944],[-43.47511874,-19.24940039],[-43.47468385,-19.24949573],[-43.47400864,-19.24979141],[-43.47366912,-19.24986198],[-43.47301682,-19.25009658],[-43.47260864,-19.25023202],[-43.47243698,-19.25043801],[-43.47221953,-19.25076225],[-43.47212417,-19.25113229],[-43.4721013,-19.2514756],[-43.47198303,-19.25191239],[-43.47181136,-19.25200585],[-43.47157103,-19.25207642],[-43.47120862,-19.25216797],[-43.47077376,-19.25225955],[-43.47038847,-19.25225955],[-43.47017103,-19.25230723],[-43.46980481,-19.25235492],[-43.46949202,-19.25249224],[-43.46927458,-19.25283746],[-43.46867185,-19.25306827],[-43.46758466,-19.25318462],[-43.46717266,-19.25334865],[-43.46707732,-19.25353366],[-43.46724514,-19.25385601],[-43.4674664,-19.2542451],[-43.46744352,-19.25470669],[-43.46734433,-19.2548421],[-43.46715357,-19.25500232],[-43.46722608,-19.25548679],[-43.46705823,-19.2559007],[-43.46700864,-19.25606282],[-43.46689038,-19.25665791],[-43.46689038,-19.25695547],[-43.46689038,-19.25723203],[-43.4668942,-19.25801407],[-43.46677213,-19.25824674],[-43.46667676,-19.25863394],[-43.46660428,-19.25877508],[-43.46645932,-19.2591661],[-43.46621899,-19.25930342],[-43.46600155,-19.25948843],[-43.46563915,-19.25965246],[-43.46515469,-19.2597879],[-43.46486477,-19.25978981],[-43.46469692,-19.25974404],[-43.46459773,-19.25942166],[-43.46430781,-19.25930534],[-43.46416285,-19.25926338],[-43.46367837,-19.25933204],[-43.46305275,-19.25949417],[-43.46273614,-19.25947319],[-43.46217918,-19.25928818],[-43.46186637,-19.25905929],[-43.46167184,-19.25896771],[-43.46116447,-19.25895058],[-43.46084785,-19.25896965],[-43.46058463,-19.25904022],[-43.460268,-19.25936258],[-43.46022223,-19.25963722],[-43.45995521,-19.26000535],[-43.45995901,-19.26016939],[-43.45995901,-19.26030862],[-43.46003149,-19.26044403],[-43.46010397,-19.26062525],[-43.46041678,-19.26088083],[-43.46080589,-19.26101624],[-43.46092797,-19.26118027],[-43.46100045,-19.26131571],[-43.46107293,-19.2615236],[-43.46107293,-19.26175057],[-43.46102334,-19.26195658],[-43.46102716,-19.26221025],[-43.46102716,-19.26246394],[-43.46109964,-19.26264895],[-43.4611683,-19.26278436],[-43.46148491,-19.26276148],[-43.46206475,-19.26257647],[-43.46249964,-19.26255167],[-43.46276667,-19.26239146],[-43.46327402,-19.26234186],[-43.46363642,-19.26227318],[-43.46397591,-19.26222551],[-43.46453289,-19.26209008],[-43.46489528,-19.26209007],[-43.4655209,-19.26197182],[-43.4659596,-19.26189934],[-43.46656231,-19.26187836],[-43.46685223,-19.26187454],[-43.46719175,-19.26187454],[-43.46762664,-19.26194511],[-43.46793945,-19.26185356],[-43.46869094,-19.26180396],[-43.46917541,-19.26180014],[-43.4696103,-19.26179823],[-43.4702626,-19.26184591],[-43.47089204,-19.26177343],[-43.47125445,-19.26180014],[-43.47176179,-19.2618898],[-43.47231875,-19.26177154],[-43.47287189,-19.26147016],[-43.473261,-19.26147205],[-43.47371875,-19.26149496],[-43.47449315,-19.26128515],[-43.47526752,-19.26102957],[-43.47565282,-19.26105055],[-43.47611059,-19.260959],[-43.47654931,-19.26095706],[-43.47691167,-19.26095706],[-43.4772016,-19.26095518],[-43.47773185,-19.26076826],[-43.47818962,-19.26063282],[-43.47860162,-19.26049168],[-43.47898686,-19.26037724],[-43.47934931,-19.26030857],[-43.47961632,-19.26023803],[-43.48002832,-19.26019223],[-43.48031824,-19.26019032],[-43.48046318,-19.26011784],[-43.48073022,-19.26004915],[-43.48089807,-19.2600282],[-43.48104303,-19.2599786],[-43.48111551,-19.2597497],[-43.48123376,-19.25942928],[-43.48133295,-19.25913172],[-43.48132913,-19.25873882],[-43.48140161,-19.25841837],[-43.4814512,-19.25807124],[-43.48156946,-19.25765734],[-43.48161903,-19.25749906],[-43.4821226,-19.25717286],[-43.48224467,-19.25712899],[-43.4831869,-19.25682573],[-43.48379345,-19.25682573],[-43.48483104,-19.25668649],[-43.48514767,-19.25668458],[-43.48548337,-19.25677613],[-43.48628446,-19.25684288],[-43.48642942,-19.25684288],[-43.48669264,-19.25684097],[-43.48717711,-19.25684097],[-43.48729919,-19.25681808],[-43.48739456,-19.25665787],[-43.4875624,-19.25654152],[-43.48792478,-19.25628594],[-43.48811934,-19.25614859],[-43.48824523,-19.25606277],[-43.4885237,-19.25587203],[-43.4886267,-19.25580528],[-43.48882128,-19.2557328],[-43.48915696,-19.25579955],[-43.48947359,-19.25580146],[-43.48990845,-19.2561677],[-43.49005341,-19.25630501],[-43.49022508,-19.25644042],[-43.49039293,-19.25662734],[-43.49053789,-19.25678757],[-43.49065615,-19.25700499],[-43.49072863,-19.25948076],[-43.49111395,-19.27040801],[-43.49114827,-19.27053008],[-43.49115207,-19.27073797],[-43.49115207,-19.27154101],[-43.4911788,-19.272735],[-43.4912551,-19.27337587],[-43.4912284,-19.27367913],[-43.49123222,-19.27420747],[-43.49108726,-19.27459467],[-43.49086981,-19.27505815],[-43.49060278,-19.27510201],[-43.48992757,-19.27531184],[-43.48951559,-19.27540339],[-43.4887183,-19.27570475],[-43.48850086,-19.27588785],[-43.48802018,-19.27611866],[-43.48768071,-19.27683392],[-43.4873679,-19.27743283],[-43.4870322,-19.27800886],[-43.48693684,-19.27855816],[-43.48679188,-19.27895108],[-43.48660114,-19.27961675],[-43.48652866,-19.28007834],[-43.4861434,-19.28077071],[-43.48599841,-19.28161757],[-43.48573517,-19.28226224],[-43.48568945,-19.2827906],[-43.4854491,-19.2834124],[-43.48506381,-19.28426308],[-43.484751,-19.28488679],[-43.48462895,-19.2852759],[-43.48448399,-19.28573367],[-43.48494556,-19.28670069],[-43.48543004,-19.28704402],[-43.48589163,-19.28757043],[-43.48623115,-19.28817125],[-43.48628454,-19.2892966],[-43.48604041,-19.28975437],[-43.48580009,-19.29028462],[-43.48553687,-19.29083394],[-43.48526983,-19.29132031],[-43.4850791,-19.29194211],[-43.48491125,-19.29228353],[-43.48462133,-19.29281379],[-43.48447255,-19.29288627],[-43.48428563,-19.29350804],[-43.48382404,-19.29403639],[-43.48329382,-19.29444838],[-43.48283604,-19.29477454],[-43.48240116,-19.29500534],[-43.48216083,-19.29535059],[-43.48182131,-19.29557946],[-43.48141316,-19.29597237],[-43.48116901,-19.29626802],[-43.48107367,-19.29661515],[-43.48102787,-19.29677727],[-43.48131779,-19.29716828],[-43.48153521,-19.29730561],[-43.48158481,-19.29760508],[-43.4816077,-19.29790261],[-43.48163443,-19.2982021],[-43.48163443,-19.29870751],[-43.48163443,-19.29911951],[-43.48175648,-19.29969363],[-43.48200063,-19.3003364],[-43.48224478,-19.30079608],[-43.48270635,-19.30127865],[-43.48285131,-19.30169065],[-43.48258428,-19.30190043],[-43.48203116,-19.30224376],[-43.48130635,-19.30249934],[-43.48067691,-19.30270726],[-43.48014668,-19.30289227],[-43.47942188,-19.30319363],[-43.47871998,-19.30339966],[-43.47852543,-19.30347021],[-43.47789599,-19.30363234],[-43.47707583,-19.30381925],[-43.47608399,-19.3043724],[-43.47511888,-19.30488353],[-43.47434448,-19.3052288],[-43.47350142,-19.30573617],[-43.47330688,-19.30580292],[-43.47306655,-19.30601273],[-43.47265456,-19.30638086],[-43.47168942,-19.30688629],[-43.47113251,-19.30721247],[-43.47072049,-19.30734788],[-43.47052975,-19.30742036],[-43.47019024,-19.30746614],[-43.46943872,-19.30749094],[-43.46900386,-19.30749285],[-43.46864146,-19.30749476],[-43.4682066,-19.30747187],[-43.46777171,-19.30735553],[-43.46710793,-19.3071972],[-43.46644037,-19.30747569],[-43.46602838,-19.30798304],[-43.46544853,-19.30800402],[-43.46504035,-19.30812227],[-43.46423927,-19.30821576],[-43.46361365,-19.30830922],[-43.46327413,-19.30837979],[-43.46269431,-19.30849614],[-43.46191991,-19.30872501],[-43.4612676,-19.30891384],[-43.46044361,-19.30907408],[-43.45998584,-19.30937352],[-43.45938313,-19.3096291],[-43.45848665,-19.31004683],[-43.45815093,-19.31020704],[-43.45781146,-19.31041494],[-43.45744906,-19.31073729],[-43.457182,-19.31092039],[-43.45708666,-19.31121795],[-43.45701418,-19.31142585],[-43.45699129,-19.31188553],[-43.45699129,-19.31211629],[-43.457018,-19.31264465],[-43.45750246,-19.31321877],[-43.45786486,-19.31330841],[-43.45839893,-19.31337516],[-43.45888341,-19.31337516],[-43.45934116,-19.31346862],[-43.46018804,-19.31346671],[-43.46096242,-19.31341902],[-43.4618093,-19.31352966],[-43.4622213,-19.3136193],[-43.46280112,-19.31378333],[-43.46321312,-19.31387297],[-43.46359841,-19.31405609],[-43.46408284,-19.31414573],[-43.4643499,-19.31416671],[-43.46468942,-19.31434981],[-43.46492973,-19.31446424],[-43.46515101,-19.3147866],[-43.46515101,-19.31515282],[-43.46515101,-19.31540651],[-43.46515101,-19.31579939],[-43.46515102,-19.31620948],[-43.46512813,-19.31667107],[-43.46515484,-19.31731767],[-43.46520441,-19.31770675],[-43.465254,-19.31807297],[-43.46547145,-19.31850785],[-43.46583767,-19.31926507],[-43.46600552,-19.31952065],[-43.46615433,-19.32069177],[-43.46615433,-19.32122011],[-43.4662039,-19.32195635],[-43.46625347,-19.32243512],[-43.46632595,-19.32305881],[-43.46644803,-19.3236787],[-43.46652433,-19.32404681],[-43.46650144,-19.32452938],[-43.46676848,-19.32524082],[-43.46696304,-19.32579395],[-43.46727203,-19.32608579],[-43.4686148,-19.32669233],[-43.46841645,-19.3268678],[-43.46814942,-19.32700514],[-43.46778701,-19.32721495],[-43.46749709,-19.32741903],[-43.46737883,-19.32755826],[-43.46703932,-19.32772229],[-43.4666998,-19.32800078],[-43.46650909,-19.32822966],[-43.4664099,-19.32845855],[-43.46643661,-19.32864356],[-43.46660446,-19.32896208],[-43.46663117,-19.32933212],[-43.46670365,-19.32972122],[-43.46670365,-19.32997489],[-43.46677993,-19.33052612],[-43.46677993,-19.33073402],[-43.46682952,-19.33110024],[-43.46682952,-19.33133102],[-43.46682952,-19.33144355],[-43.46682952,-19.33174684],[-43.46677993,-19.33194901],[-43.46675704,-19.33236482],[-43.46673416,-19.33266236],[-43.4666159,-19.33309915],[-43.4665892,-19.33339859],[-43.46654342,-19.3336046],[-43.46642135,-19.33406424],[-43.46636414,-19.33427409],[-43.46586823,-19.33450294],[-43.4656012,-19.33450487],[-43.46543335,-19.33450294],[-43.46521591,-19.33457354],[-43.46494887,-19.33457736],[-43.46460935,-19.33462313],[-43.46424697,-19.33464793],[-43.46388459,-19.33469371],[-43.46359465,-19.33476428],[-43.46323224,-19.33478717],[-43.46289273,-19.33478526],[-43.46255326,-19.33457927],[-43.46230908,-19.33423782],[-43.46238156,-19.33405284],[-43.46259898,-19.33377437],[-43.46284313,-19.3335245],[-43.46296143,-19.33336237],[-43.46306057,-19.33315634],[-43.46308348,-19.33278635],[-43.46307966,-19.33258227],[-43.46307966,-19.33232858],[-43.46307966,-19.33212068],[-43.46291181,-19.33196238],[-43.46286222,-19.33182121],[-43.46269437,-19.33172966],[-43.46240063,-19.33159234],[-43.46203822,-19.33159234],[-43.46172541,-19.33170869],[-43.4614584,-19.33191849],[-43.46124096,-19.33207873],[-43.46100063,-19.33221605],[-43.46080607,-19.33224276],[-43.46042076,-19.3319185],[-43.45995919,-19.33178308],[-43.45959681,-19.33162287],[-43.45944803,-19.33130052],[-43.45930307,-19.33093241],[-43.45908562,-19.3305433],[-43.45903603,-19.33040598],[-43.45860114,-19.32983377],[-43.45821205,-19.32958199],[-43.45789924,-19.32958008],[-43.45753684,-19.32999589],[-43.45744147,-19.33031634],[-43.45712485,-19.33063867],[-43.45697988,-19.33094003],[-43.45681204,-19.33139971],[-43.45669378,-19.33162861],[-43.45637718,-19.3319071],[-43.45628181,-19.33206919],[-43.45609107,-19.33229807],[-43.45601859,-19.33261661],[-43.45599571,-19.3328245],[-43.45594611,-19.33335284],[-43.45585072,-19.33372291],[-43.45599571,-19.33425313],[-43.45607199,-19.33457356],[-43.4560949,-19.334873],[-43.4560949,-19.33519345],[-43.45602621,-19.33530027],[-43.45588507,-19.33542996],[-43.45565238,-19.33556349],[-43.45551124,-19.33573895],[-43.45546164,-19.33587057],[-43.45548835,-19.33606322],[-43.45554176,-19.33632262],[-43.45566384,-19.33664304],[-43.45573632,-19.33678036],[-43.45578589,-19.33691578],[-43.45585837,-19.33730871],[-43.45588128,-19.33748992],[-43.45598044,-19.33788471],[-43.45585837,-19.33820327],[-43.45590797,-19.3385256],[-43.45595756,-19.33884605],[-43.45598045,-19.33901008],[-43.45603004,-19.33935341],[-43.45610252,-19.33960708],[-43.45617882,-19.33978827],[-43.45636956,-19.34008774],[-43.45649163,-19.34031852],[-43.45661371,-19.34045585],[-43.45693032,-19.34084686],[-43.45738809,-19.34116729],[-43.45760935,-19.3414858],[-43.45784968,-19.34194741],[-43.45802135,-19.34222013],[-43.45836084,-19.34258828],[-43.45836084,-19.34279618],[-43.45828839,-19.34300407],[-43.45819302,-19.3431891],[-43.45814343,-19.34359917],[-43.45817011,-19.34389673],[-43.45833796,-19.34428774],[-43.45850963,-19.34467683],[-43.45860882,-19.34504878],[-43.45882626,-19.34569156],[-43.45882626,-19.34614742],[-43.45890256,-19.34677301],[-43.45890256,-19.34718308],[-43.45904753,-19.34789454],[-43.45933745,-19.34810437],[-43.45960828,-19.34876622],[-43.45972654,-19.34908664],[-43.45989821,-19.34955016],[-43.46002028,-19.34993924],[-43.46011947,-19.35055914],[-43.46011947,-19.35104168],[-43.46021866,-19.35147656],[-43.46011948,-19.35191336],[-43.46021866,-19.35248938],[-43.46034072,-19.35287847],[-43.46036742,-19.35340681],[-43.46039034,-19.35405341],[-43.46043991,-19.35465041],[-43.46051621,-19.35492697],[-43.46070694,-19.3552703],[-43.46097398,-19.3556575],[-43.46114565,-19.35597983],[-43.46165299,-19.35634987],[-43.46182466,-19.35651008],[-43.4620421,-19.3568553],[-43.46216418,-19.3570594],[-43.46219086,-19.35767739],[-43.46206881,-19.35788528],[-43.46206881,-19.35804738],[-43.46204593,-19.35836785],[-43.46204593,-19.35869209],[-43.46204593,-19.35899156],[-43.46209552,-19.35938067],[-43.462168,-19.35976975],[-43.46229008,-19.3600902],[-43.4625037,-19.3604774],[-43.4639037,-19.36071009],[-43.46432332,-19.36073106],[-43.46444541,-19.36075586],[-43.46480779,-19.36079973],[-43.46514731,-19.36089127],[-43.46568136,-19.36107246],[-43.46580343,-19.36120981],[-43.46597128,-19.36125559],[-43.46635657,-19.36125558],[-43.46657402,-19.36132425],[-43.46676857,-19.36159701],[-43.4670852,-19.36201091],[-43.46744758,-19.36251443],[-43.46785958,-19.36286159],[-43.46803123,-19.36299891],[-43.46824869,-19.36324876],[-43.46863778,-19.36345668],[-43.46907267,-19.3635673],[-43.46970211,-19.36368173],[-43.47016367,-19.36368173],[-43.47052608,-19.36367982],[-43.47081598,-19.36358636],[-43.47110592,-19.36349481],[-43.47146833,-19.36338037],[-43.47175825,-19.3633098],[-43.47209774,-19.36315147],[-43.47250592,-19.36314956],[-43.47270048,-19.36310188],[-43.47316207,-19.36289207],[-43.47354736,-19.36273377],[-43.4740547,-19.36254876],[-43.47415007,-19.36249917],[-43.47441708,-19.36245721],[-43.47468414,-19.36238662],[-43.47497406,-19.3624286],[-43.47536315,-19.36256783],[-43.47567596,-19.36263458],[-43.47633211,-19.36291114],[-43.47683945,-19.36297791],[-43.47712937,-19.362976],[-43.47770922,-19.362976],[-43.47802203,-19.36276619],[-43.47843403,-19.3627204],[-43.47867815,-19.36256018],[-43.47913592,-19.36244193],[-43.47942584,-19.36219017],[-43.47971577,-19.36195936],[-43.48010106,-19.36179915],[-43.48056263,-19.36168089],[-43.48097462,-19.36158934],[-43.48133703,-19.36152068],[-43.48215338,-19.36062802],[-43.48003621,-19.36979862],[-43.47982259,-19.37071032],[-43.47942205,-19.3708324],[-43.47925038,-19.37083049],[-43.47886509,-19.37104032],[-43.47840734,-19.3714294],[-43.47799534,-19.37157055],[-43.47770542,-19.37182615],[-43.47736591,-19.37209889],[-43.47721715,-19.37227819],[-43.47707601,-19.37244413],[-43.47690816,-19.37258337],[-43.47669072,-19.37281606],[-43.47640079,-19.37322806],[-43.47620624,-19.37343595],[-43.47582095,-19.37377929],[-43.47548143,-19.37405776],[-43.4752411,-19.37431143],[-43.47495121,-19.37461281],[-43.47432561,-19.37502669],[-43.47362366,-19.37537384],[-43.47328417,-19.3756504],[-43.47297136,-19.37574386],[-43.4725098,-19.37599756],[-43.47197952,-19.37611008],[-43.47154466,-19.37611009],[-43.47108307,-19.37618448],[-43.47071303,-19.37618448],[-43.47014082,-19.37627603],[-43.47001877,-19.37627794],[-43.46970596,-19.37627603],[-43.46900404,-19.37630271],[-43.46895446,-19.3763962],[-43.468737,-19.37655641],[-43.46846996,-19.37688067],[-43.46835171,-19.37710955],[-43.46844708,-19.37729074],[-43.46851956,-19.37748911],[-43.46883619,-19.37747577],[-43.46910322,-19.37747195],[-43.46948852,-19.37761118],[-43.46975558,-19.37760927],[-43.46997297,-19.3775654],[-43.47036206,-19.37765504],[-43.47069778,-19.37765313],[-43.47094193,-19.37765504],[-43.47128144,-19.37765313],[-43.47159423,-19.37747194],[-43.47188415,-19.37732889],[-43.472052,-19.37721254],[-43.47222367,-19.37712479],[-43.47241441,-19.37707519],[-43.47268144,-19.37696078],[-43.47297136,-19.3768673],[-43.47326129,-19.37686539],[-43.47347873,-19.3768673],[-43.47386782,-19.37709619],[-43.47423022,-19.37716295],[-43.47481386,-19.37767028],[-43.47524877,-19.37789536],[-43.47595067,-19.37803078],[-43.4769196,-19.37823869],[-43.47711416,-19.37833024],[-43.47754902,-19.37860489],[-43.47805639,-19.37892533],[-43.47871253,-19.37922096],[-43.47939154,-19.37922096],[-43.47977684,-19.37937737],[-43.48013924,-19.37944983],[-43.48062372,-19.37974739],[-43.48127984,-19.3801365],[-43.48164225,-19.38024711],[-43.48193217,-19.38040735],[-43.48219921,-19.38045503],[-43.48280574,-19.38072777],[-43.48329021,-19.38072586],[-43.48389295,-19.38093566],[-43.48440411,-19.38097955],[-43.48491147,-19.38097573],[-43.48522429,-19.38097764],[-43.48551421,-19.38092995],[-43.48595289,-19.38083459],[-43.48628859,-19.38083649],[-43.48660522,-19.3808136],[-43.48677307,-19.38122558],[-43.48684937,-19.38147927],[-43.48697142,-19.38189124],[-43.48694476,-19.38218878],[-43.48682648,-19.38267137],[-43.48673111,-19.38315392],[-43.48656327,-19.3836403],[-43.48658615,-19.38396075],[-43.48658616,-19.38428308],[-43.48670823,-19.38469508],[-43.4868074,-19.38496972],[-43.48690276,-19.38529208],[-43.48707443,-19.38561441],[-43.48726899,-19.38595966],[-43.48748643,-19.38616373],[-43.48770387,-19.38625719],[-43.48794802,-19.3864384],[-43.48814255,-19.38678362],[-43.48838291,-19.38689997],[-43.48852785,-19.38701252],[-43.48889407,-19.38747217],[-43.48911151,-19.38760952],[-43.48966845,-19.3878136],[-43.48981341,-19.38783648],[-43.49013004,-19.38788035],[-43.49039326,-19.38788226],[-43.49061452,-19.38788035],[-43.49085485,-19.38785937],[-43.49121723,-19.38774111],[-43.49141178,-19.38746646],[-43.49155674,-19.38732721],[-43.49179707,-19.38727952],[-43.49196492,-19.38716318],[-43.49237694,-19.38757899],[-43.49254095,-19.38762858],[-43.49271644,-19.38764383],[-43.49272023,-19.38803676],[-43.49250279,-19.38826563],[-43.4921633,-19.38849835],[-43.48999273,-19.39307029],[-43.48697527,-19.3943959],[-43.48114258,-19.40265858],[-43.48564014,-19.40627494],[-43.47925813,-19.41487714],[-43.48164235,-19.41940902],[-43.48213441,-19.41938613],[-43.48358024,-19.42190956],[-43.48171104,-19.43069867],[-43.48576227,-19.42936733],[-43.48089091,-19.44271312],[-43.48037594,-19.45388454],[-43.48341629,-19.45467227],[-43.48389693,-19.45481723],[-43.48725392,-19.45758674],[-43.49113731,-19.45873112],[-43.49358636,-19.45836298],[-43.4928311,-19.46911668],[-43.49856082,-19.48028235],[-43.50011724,-19.48183492],[-43.50056738,-19.48234037],[-43.50083441,-19.48263984],[-43.5012197,-19.48282867],[-43.50129219,-19.48298697],[-43.501605,-19.48324257],[-43.50211234,-19.48356872],[-43.50269219,-19.48373084],[-43.50305459,-19.48387389],[-43.50353907,-19.48419813],[-43.50380608,-19.48442703],[-43.50389766,-19.48473029],[-43.50416088,-19.48537498],[-43.50447366,-19.48585948],[-43.50461863,-19.4861589],[-43.50512218,-19.48710685],[-43.50531291,-19.48786788],[-43.5057211,-19.48867662],[-43.50610257,-19.48953303],[-43.50627042,-19.48992784],[-43.5066786,-19.49071176],[-43.50730041,-19.49198207],[-43.50766281,-19.49246843],[-43.50800231,-19.49267444],[-43.50933367,-19.49286517],[-43.51398003,-19.50397173],[-43.5236771,-19.51382702],[-43.52887661,-19.52626489],[-43.53655185,-19.5300319],[-43.54375791,-19.54183081],[-43.54380369,-19.54170109],[-43.54389142,-19.54155234],[-43.54403636,-19.54143602],[-43.54416988,-19.54130055],[-43.54429196,-19.54114034],[-43.54436444,-19.5409992],[-43.54448651,-19.54086187],[-43.5445857,-19.54074362],[-43.54469252,-19.54052809],[-43.54470777,-19.54032017],[-43.5447688,-19.54024007],[-43.54480314,-19.5401447],[-43.54489087,-19.54005506],[-43.54498624,-19.53983571],[-43.54508542,-19.53964116],[-43.54518079,-19.53944278],[-43.54524182,-19.53929591],[-43.54530287,-19.53920436],[-43.54535244,-19.53911091],[-43.54541346,-19.53896213],[-43.54553556,-19.53880955],[-43.5456462,-19.53870655],[-43.54579114,-19.53853679],[-43.54591319,-19.53839755],[-43.54598569,-19.5382793],[-43.54608488,-19.53818966],[-43.5461917,-19.53803706],[-43.54626418,-19.53788069],[-43.54641294,-19.53764604],[-43.54650831,-19.53752017],[-43.54656935,-19.53743053],[-43.54666856,-19.53721118],[-43.54672954,-19.53704906],[-43.54679061,-19.53690028],[-43.54684018,-19.53678202],[-43.54692412,-19.53654361],[-43.54696226,-19.53639482],[-43.5469966,-19.53616022],[-43.54703474,-19.53598092],[-43.54711867,-19.53577302],[-43.54716824,-19.5356567],[-43.5472064,-19.53552885],[-43.54724074,-19.53532289],[-43.54729034,-19.53506922],[-43.54737425,-19.53489373],[-43.54749632,-19.53466486],[-43.54772902,-19.53428718],[-43.54815626,-19.53383514],[-43.54836227,-19.53351471],[-43.5484233,-19.533385],[-43.54848432,-19.5331237],[-43.54850723,-19.53294633],[-43.54856826,-19.53277657],[-43.54862928,-19.53261445],[-43.54869033,-19.53231689],[-43.54871704,-19.53218909],[-43.54877806,-19.53187821],[-43.54877806,-19.53163406],[-43.54877806,-19.53140516],[-43.54877806,-19.53121825],[-43.54877806,-19.53106185],[-43.54877806,-19.53092071],[-43.54877806,-19.53079482],[-43.54885054,-19.53060981],[-43.54887724,-19.53047439],[-43.54887724,-19.53027602],[-43.54887724,-19.5301139],[-43.5488887,-19.52999944],[-43.54893827,-19.52986021],[-43.54897261,-19.52968854],[-43.54752681,-19.51890435],[-43.54746194,-19.51841606],[-43.54717964,-19.51189481],[-43.55659436,-19.50155307],[-43.55574747,-19.49700593],[-43.57218511,-19.48323095],[-43.56792787,-19.46892195],[-43.60222217,-19.42681501],[-43.60647559,-19.4282665],[-43.61203743,-19.41266812],[-43.62544611,-19.37971083],[-43.63071805,-19.37404977],[-43.63024121,-19.37398686],[-43.62961179,-19.37398111],[-43.62886028,-19.37400399],[-43.62803631,-19.37395249],[-43.62779598,-19.37379228],[-43.62758235,-19.37332879],[-43.62734202,-19.37291299],[-43.62719708,-19.37265742],[-43.62693002,-19.37245332],[-43.62673929,-19.37231217],[-43.62632731,-19.37221872],[-43.62581997,-19.37191545],[-43.62553002,-19.37184679],[-43.62514091,-19.37166176],[-43.62470984,-19.37138329],[-43.6241758,-19.37122118],[-43.62374091,-19.37103235],[-43.62335562,-19.37096178],[-43.6230161,-19.37082443],[-43.62267661,-19.3704773],[-43.62210058,-19.36989937],[-43.62207769,-19.36976014],[-43.62198232,-19.36941492],[-43.62186407,-19.36883698],[-43.62176869,-19.36814461],[-43.62176869,-19.36777839],[-43.62177251,-19.36766207],[-43.6217954,-19.36729012],[-43.62189456,-19.36678657],[-43.62192508,-19.36618575],[-43.62195179,-19.36567838],[-43.62200138,-19.36521873],[-43.62200138,-19.3648258],[-43.6220052,-19.36420782],[-43.62190983,-19.36367375],[-43.62215777,-19.36298328],[-43.62223025,-19.36236151],[-43.62232943,-19.36183316],[-43.62240573,-19.36132771],[-43.62250492,-19.36089092],[-43.62248203,-19.36035687],[-43.62217306,-19.35978084],[-43.62205096,-19.35952715],[-43.621906,-19.35916095],[-43.62166948,-19.35865168],[-43.62125749,-19.35823398],[-43.62113923,-19.35800129],[-43.62104386,-19.35760836],[-43.62097138,-19.35735469],[-43.62083023,-19.35687022],[-43.62066238,-19.35650399],[-43.62051742,-19.35608629],[-43.62042205,-19.35572007],[-43.62035339,-19.35537103],[-43.62020843,-19.35502773],[-43.62001769,-19.35454134],[-43.6199681,-19.35424378],[-43.62001769,-19.35391954],[-43.61987654,-19.35359718],[-43.61970869,-19.35332063],[-43.6195866,-19.35308791],[-43.61944548,-19.35269501],[-43.61937299,-19.35235167],[-43.61937299,-19.35202552],[-43.6193997,-19.35170508],[-43.61944929,-19.35143043],[-43.61952557,-19.35124542],[-43.61959807,-19.35096504],[-43.61964766,-19.35057784],[-43.61974685,-19.35043861],[-43.6198651,-19.35027646],[-43.61996429,-19.35000182],[-43.61996808,-19.34965466],[-43.62001768,-19.34914732],[-43.61994904,-19.34870862],[-43.61982694,-19.34829283],[-43.61968579,-19.34794759],[-43.61954081,-19.34750889],[-43.61939587,-19.34707021],[-43.6193272,-19.34686611],[-43.61915936,-19.34647129],[-43.6190869,-19.34630917],[-43.61883893,-19.34621572],[-43.61870158,-19.34612417],[-43.61851466,-19.34603259],[-43.61837734,-19.345901],[-43.61819424,-19.34563396],[-43.61810266,-19.34536502],[-43.61791956,-19.34520099],[-43.6177746,-19.3451323],[-43.61767926,-19.34497403],[-43.61758387,-19.34488248],[-43.61746179,-19.34481],[-43.61736642,-19.34476422],[-43.61714898,-19.34464976],[-43.61697734,-19.3445811],[-43.61678658,-19.3445563],[-43.61651956,-19.34448573],[-43.61635171,-19.34435032],[-43.61620675,-19.34432552],[-43.61606179,-19.34425686],[-43.61586724,-19.34421109],[-43.61576805,-19.34418629],[-43.61564979,-19.34416338],[-43.61545526,-19.34421109],[-43.61540567,-19.34430264],[-43.61533319,-19.34450862],[-43.61526071,-19.34462688],[-43.61521111,-19.34483289],[-43.61506615,-19.34508465],[-43.61489449,-19.34517811],[-43.61467704,-19.34534023],[-43.61443671,-19.34550047],[-43.61416966,-19.34557104],[-43.61399804,-19.34566068],[-43.61387596,-19.3456645],[-43.61370811,-19.34570836],[-43.61339148,-19.34577703],[-43.61327323,-19.34586667],[-43.61307867,-19.34587049],[-43.61291082,-19.34589146],[-43.61276207,-19.34591244],[-43.61254462,-19.34591626],[-43.61242637,-19.34579801],[-43.6122547,-19.34561491],[-43.61215933,-19.34547377],[-43.61210974,-19.34538412],[-43.61194189,-19.345201],[-43.61189611,-19.34510564],[-43.61179693,-19.345016],[-43.61165196,-19.34480621],[-43.611507,-19.34471464],[-43.61141163,-19.34462309],[-43.61126667,-19.34451054],[-43.61114842,-19.34439229],[-43.61083179,-19.34425305],[-43.61068685,-19.34420728],[-43.61056477,-19.34418439],[-43.6104465,-19.3441596],[-43.61020237,-19.34411382],[-43.61000784,-19.34411573],[-43.60957293,-19.34409094],[-43.60935549,-19.34409285],[-43.60908848,-19.34406805],[-43.60892063,-19.34399939],[-43.60855822,-19.3440013],[-43.60829119,-19.34393073],[-43.60816911,-19.34383536],[-43.60761215,-19.34381247],[-43.60751679,-19.3437457],[-43.60739473,-19.3437209],[-43.60695985,-19.34369992],[-43.606792,-19.34369801],[-43.60659745,-19.34369802],[-43.6064296,-19.34369611],[-43.60628463,-19.34376668],[-43.60609008,-19.3439288],[-43.60599089,-19.34402228],[-43.60589553,-19.3441577],[-43.60577348,-19.3443408],[-43.60572388,-19.34445903],[-43.60550644,-19.34464217],[-43.60521652,-19.34484816],[-43.60527754,-19.34423782],[-43.6054378,-19.34367513],[-43.60555985,-19.343328],[-43.60570479,-19.34298085],[-43.60577727,-19.34266043],[-43.60575438,-19.34201383],[-43.60602141,-19.34169147],[-43.60604812,-19.34125279],[-43.60624267,-19.34093426],[-43.60653259,-19.34054326],[-43.60663178,-19.34024188],[-43.60682631,-19.33987187],[-43.60704375,-19.33968874],[-43.60721542,-19.33950564],[-43.60743286,-19.33927677],[-43.60748245,-19.33904596],[-43.60758164,-19.33867594],[-43.60758164,-19.33828302],[-43.60755875,-19.33791682],[-43.60729171,-19.33761735],[-43.60673475,-19.33754487],[-43.60634946,-19.33765933],[-43.60574293,-19.33747812],[-43.60494564,-19.33678575],[-43.60463283,-19.33639476],[-43.60403012,-19.33590646],[-43.60366774,-19.33544869],[-43.60316035,-19.33498713],[-43.60267969,-19.33487078],[-43.60190149,-19.33487079],[-43.60119957,-19.33498713],[-43.6011042,-19.33519312],[-43.60057016,-19.3353972],[-43.59989494,-19.33530565],[-43.59970039,-19.33500621],[-43.59960502,-19.33466287],[-43.59946005,-19.33443018],[-43.59938757,-19.33422226],[-43.59938757,-19.33394761],[-43.59939139,-19.33346316],[-43.5992922,-19.33320947],[-43.59929602,-19.33293482],[-43.59924643,-19.33247323],[-43.59886116,-19.33203644],[-43.59878867,-19.33175606],[-43.59863608,-19.33169122],[-43.59117827,-19.32767623],[-43.57861633,-19.310882],[-43.56398298,-19.30068335],[-43.54868977,-19.31156869],[-43.53208423,-19.30733249],[-43.53013105,-19.29276218],[-43.53714632,-19.28366596],[-43.5329844,-19.259906],[-43.53270973,-19.26022834],[-43.53256477,-19.26022834],[-43.53241981,-19.26018256],[-43.53220237,-19.2600891],[-43.53198492,-19.25978966],[-43.5317713,-19.25937194],[-43.5314814,-19.25891417],[-43.53124107,-19.25850028],[-43.53104651,-19.25824659],[-43.53104651,-19.25801581],[-43.53083288,-19.25759811],[-43.53051626,-19.25736921],[-43.53037511,-19.2571842],[-43.53005848,-19.25700111],[-43.52947868,-19.25662916],[-43.52912007,-19.25644606],[-43.52870807,-19.25624007],[-43.52849063,-19.25598447],[-43.52800615,-19.25570601],[-43.52759797,-19.255521],[-43.52704485,-19.25485342],[-43.52670534,-19.25446241],[-43.52646501,-19.25402182],[-43.52629716,-19.25381772],[-43.52593475,-19.25340384],[-43.52571731,-19.25307576],[-43.52535493,-19.25259321],[-43.52509171,-19.25218122],[-43.52487426,-19.25190273],[-43.52461105,-19.25160328],[-43.52441649,-19.25143928],[-43.52415325,-19.25118938],[-43.52388624,-19.25100058],[-43.52366882,-19.25075072],[-43.52345135,-19.25045123],[-43.52309276,-19.25008122],[-43.52280286,-19.24978175],[-43.52260831,-19.2494823],[-43.52212765,-19.24915806],[-43.52183775,-19.24874416],[-43.52176524,-19.24851338],[-43.5215478,-19.24825777],[-43.52126169,-19.24795833],[-43.52092218,-19.24756731],[-43.52065898,-19.24724307],[-43.52027369,-19.24682917],[-43.52005624,-19.24661936],[-43.51976632,-19.24627414],[-43.51935432,-19.24579158],[-43.51899573,-19.24496188],[-43.51892325,-19.24452318],[-43.51856467,-19.24408639],[-43.51827477,-19.2436458],[-43.51815649,-19.24336922],[-43.51801155,-19.24311555],[-43.51796195,-19.24290765],[-43.51791618,-19.24260819],[-43.51791618,-19.24237931],[-43.51791618,-19.24210275],[-43.51791618,-19.24191772],[-43.51806493,-19.24164307],[-43.51813741,-19.24127303],[-43.51825948,-19.2411338],[-43.51830908,-19.24094879],[-43.51840445,-19.24063025],[-43.51850363,-19.24005234],[-43.51855322,-19.23965941],[-43.51857993,-19.23942863],[-43.51860281,-19.23896895],[-43.51860663,-19.23867139],[-43.51855704,-19.23834906],[-43.51848838,-19.23814116],[-43.5183663,-19.23772535],[-43.5183663,-19.23749457],[-43.51832052,-19.23721799],[-43.51824804,-19.23703298],[-43.51812981,-19.23666487],[-43.51812981,-19.23634442],[-43.51812981,-19.23615942],[-43.51812981,-19.23604307],[-43.51803442,-19.23560819],[-43.51798864,-19.23537738],[-43.5177712,-19.23507794],[-43.51774831,-19.23480138],[-43.51769872,-19.23466024],[-43.51755375,-19.23438366],[-43.51748509,-19.23415287],[-43.5173859,-19.23399457],[-43.51719517,-19.23387441],[-43.51706927,-19.23389157],[-43.51678317,-19.23408421],[-43.5166115,-19.23422345],[-43.51637117,-19.23440655],[-43.51590961,-19.23466024],[-43.51557009,-19.23486432],[-43.51499024,-19.23521336],[-43.51465075,-19.23541746],[-43.51414338,-19.23525534],[-43.51385346,-19.23536978],[-43.51339187,-19.23539457],[-43.5129799,-19.23539076],[-43.51273957,-19.23541555],[-43.51252213,-19.23541365],[-43.51230471,-19.23538885],[-43.51174772,-19.2353221],[-43.51121749,-19.23515998],[-43.51107253,-19.23504554],[-43.5108055,-19.23488531],[-43.5104698,-19.23462973],[-43.51025235,-19.23441992],[-43.50991284,-19.23414525],[-43.50969539,-19.23393545],[-43.50964962,-19.23380003],[-43.50952754,-19.23352345],[-43.5097221,-19.23308286],[-43.5097984,-19.23283108],[-43.51008832,-19.23248395],[-43.51028287,-19.2321883],[-43.51062237,-19.23182019],[-43.51098477,-19.23149783],[-43.51122892,-19.23115261],[-43.51147304,-19.23080737],[-43.51183549,-19.23048504],[-43.51220166,-19.23007113],[-43.51258696,-19.22981746],[-43.51295318,-19.22933296],[-43.5131973,-19.22903545],[-43.51336513,-19.22891908],[-43.5135597,-19.22880464],[-43.51377715,-19.22852617],[-43.5139717,-19.22827441],[-43.51428833,-19.22815995],[-43.51450577,-19.22799783],[-43.51465073,-19.22779184],[-43.51479567,-19.22762974],[-43.51479567,-19.22749046],[-43.51467741,-19.22749428],[-43.5144104,-19.22749237],[-43.51402511,-19.22744278],[-43.51346815,-19.22748856],[-43.51307904,-19.22772125],[-43.51259459,-19.22778803],[-43.51223218,-19.22790246],[-43.51162563,-19.22825148],[-43.51135862,-19.22838885],[-43.51101908,-19.22859293],[-43.51048885,-19.22873026],[-43.5101722,-19.2289172],[-43.50990521,-19.22895915],[-43.50942073,-19.22928149],[-43.50879129,-19.22946652],[-43.50833352,-19.22957905],[-43.50792155,-19.22964771],[-43.50721963,-19.22964771],[-43.5069297,-19.22944173],[-43.50666649,-19.2292319],[-43.50649484,-19.22907169],[-43.50620874,-19.22877227],[-43.50577385,-19.22844798],[-43.50541145,-19.22803219],[-43.50521689,-19.22785098],[-43.50509863,-19.22768695],[-43.50473623,-19.22729595],[-43.50451879,-19.22722538],[-43.50432805,-19.22711092],[-43.5041564,-19.22683437],[-43.50389319,-19.22648912],[-43.50355367,-19.22639567],[-43.50326375,-19.22641665],[-43.50280597,-19.22643953],[-43.5026839,-19.22643953],[-43.50219944,-19.22625453],[-43.50195911,-19.22607143],[-43.50181415,-19.22586162],[-43.50162342,-19.22565752],[-43.5013106,-19.22528942],[-43.50121523,-19.22485071],[-43.50114275,-19.22436624],[-43.50111986,-19.22392756],[-43.50112368,-19.22337633],[-43.50112368,-19.22300629],[-43.50117327,-19.22268205],[-43.50117327,-19.22229294],[-43.5010321,-19.22187524],[-43.50098253,-19.22157768],[-43.50088716,-19.22118287],[-43.50100924,-19.22088722],[-43.50098637,-19.22061066],[-43.49908278,-19.22027497]]]]},"geometry_name":"the_geom","properties":{"ogc_fid":146,"nomeuc":"PARQUE NACIONAL DA SERRA DO CIPÓ","cnuc":"0000.00.0148","criacaoano":"1984","areahaalb":31639.31049294256,"perimm":112560.70919657966,"criacaoato":"DEC 90.223, de 25/09/1984; DEC 94.984, de 30/09/1987","esferaadm":"Federal","siglacateg":"PARNA","grupouc":"PI","ufabrang":"MG","biomaibge":"CERRADO","biomacrl":"CERRADO e MATA ATLÂNTICA","gregional":"GR4","fusoabrang":"23S","abrev":"Parna da Serra do Cipó","escalauc":"1:100.000","demarcacao":"Não demarcada"},"bbox":[-43.63071805,-19.54183081,-43.45546164,-19.22009569]}],"totalFeatures":1,"numberMatched":1,"numberReturned":1,"timeStamp":"2026-03-26T02:14:36.353Z","crs":{"type":"name","properties":{"name":"urn:ogc:def:crs:EPSG::4674"}},"bbox":[-43.63071805,-19.54183081,-43.45546164,-19.22009569]}